{"type": "FeatureCollection", "features": [{"type": "Feature", "properties": {"highway": "tertiary", "oneway": "yes", "lanes": "2", "maxspeed": "30"}, "geometry": {"type": "MultiLineString", "coordinates": [[[-74.0690054, 4.6665492], [-74.0689387, 4.6665139]], [[-74.0689387, 4.6665139], [-74.0688801, 4.6664867]], [[-74.0688801, 4.6664867], [-74.068703, 4.6664213]], [[-74.068703, 4.6664213], [-74.068596, 4.66639]], [[-74.068596, 4.66639], [-74.068493, 4.6663566]], [[-74.068493, 4.6663566], [-74.0684287, 4.6663261]], [[-74.0684287, 4.6663261], [-74.0682795, 4.6662301]], [[-74.0682795, 4.6662301], [-74.0682187, 4.666191]], [[-74.0682187, 4.666191], [-74.0678303, 4.6659411]], [[-74.0678303, 4.6659411], [-74.0677838, 4.6659112]], [[-74.0677838, 4.6659112], [-74.0676483, 4.665824]], [[-74.0676483, 4.665824], [-74.0673311, 4.6656199]], [[-74.0673311, 4.6656199], [-74.0672704, 4.6655809]], [[-74.0672704, 4.6655809], [-74.0668849, 4.6653329]], [[-74.0668849, 4.6653329], [-74.0667671, 4.6652571]], [[-74.0667671, 4.6652571], [-74.0664706, 4.6650664]], [[-74.0664706, 4.6650664], [-74.0661624, 4.664868]], [[-74.0661624, 4.664868], [-74.0661264, 4.6648449]], [[-74.0661264, 4.6648449], [-74.0660711, 4.6648093]]]}}, {"type": "Feature", "properties": {"highway": "residential", "oneway": null, "lanes": "2", "maxspeed": null}, "geometry": {"type": "MultiLineString", "coordinates": [[[-74.0546528, 4.664816], [-74.05511, 4.6640945]]]}}, {"type": "Feature", "properties": {"highway": "residential", "oneway": null, "lanes": "2", "maxspeed": null}, "geometry": {"type": "MultiLineString", "coordinates": [[[-74.0574454, 4.672518], [-74.0579589, 4.6727733]]]}}, {"type": "Feature", "properties": {"highway": "residential", "oneway": "yes", "lanes": "2", "maxspeed": null}, "geometry": {"type": "MultiLineString", "coordinates": [[[-74.0515659, 4.6721116], [-74.0508151, 4.6717171]]]}}, {"type": "Feature", "properties": {"highway": "residential", "oneway": null, "lanes": "2", "maxspeed": null}, "geometry": {"type": "MultiLineString", "coordinates": [[[-74.0579512, 4.6714483], [-74.0579339, 4.6714859]], [[-74.0579339, 4.6714859], [-74.0574454, 4.672518]]]}}, {"type": "Feature", "properties": {"highway": "residential", "oneway": "yes", "lanes": "3", "maxspeed": null}, "geometry": {"type": "MultiLineString", "coordinates": [[[-74.0543726, 4.663569], [-74.0543309, 4.6635393]], [[-74.0543309, 4.6635393], [-74.0527207, 4.6623913]], [[-74.0527207, 4.6623913], [-74.0526857, 4.6623663]]]}}, {"type": "Feature", "properties": {"highway": "residential", "oneway": "yes", "lanes": "2", "maxspeed": null}, "geometry": {"type": "MultiLineString", "coordinates": [[[-74.0572905, 4.6728353], [-74.0567462, 4.6725705]]]}}, {"type": "Feature", "properties": {"highway": "residential", "oneway": "no", "lanes": "2", "maxspeed": null}, "geometry": {"type": "MultiLineString", "coordinates": [[[-74.0556333, 4.6673541], [-74.0556626, 4.6673026]], [[-74.0556626, 4.6673026], [-74.0559962, 4.6667035]]]}}, {"type": "Feature", "properties": {"highway": "residential", "oneway": "yes", "lanes": "2", "maxspeed": null}, "geometry": {"type": "MultiLineString", "coordinates": [[[-74.0565096, 4.662219], [-74.0564527, 4.662258]], [[-74.0564527, 4.662258], [-74.0563868, 4.6623337]], [[-74.0563868, 4.6623337], [-74.0563194, 4.662434]], [[-74.0563194, 4.662434], [-74.0562929, 4.6625016]], [[-74.0562929, 4.6625016], [-74.0562899, 4.662515]]]}}, {"type": "Feature", "properties": {"highway": "residential", "oneway": "yes", "lanes": "2", "maxspeed": "30"}, "geometry": {"type": "MultiLineString", "coordinates": [[[-74.062904, 4.668204], [-74.0629306, 4.6681619]], [[-74.0629306, 4.6681619], [-74.0632444, 4.6676649]], [[-74.0632444, 4.6676649], [-74.0637068, 4.6669326]], [[-74.0637068, 4.6669326], [-74.0642076, 4.6661767]], [[-74.0642076, 4.6661767], [-74.0642198, 4.6661589]], [[-74.0642198, 4.6661589], [-74.064242, 4.6661265]], [[-74.064242, 4.6661265], [-74.064282, 4.6660684]], [[-74.064282, 4.6660684], [-74.0644896, 4.665729]], [[-74.0644896, 4.665729], [-74.0645091, 4.6656971]], [[-74.0645091, 4.6656971], [-74.0645316, 4.6656614]], [[-74.0645316, 4.6656614], [-74.064743, 4.6653254]], [[-74.064743, 4.6653254], [-74.0647792, 4.6652689]], [[-74.0647792, 4.6652689], [-74.0648083, 4.6652192]], [[-74.0648083, 4.6652192], [-74.0650352, 4.6648316]], [[-74.0650352, 4.6648316], [-74.0650557, 4.6647966]], [[-74.0650557, 4.6647966], [-74.0650787, 4.6647604]], [[-74.0650787, 4.6647604], [-74.0653132, 4.6643907]], [[-74.0653132, 4.6643907], [-74.0653274, 4.6643683]], [[-74.0653274, 4.6643683], [-74.0653397, 4.6643485]], [[-74.0653397, 4.6643485], [-74.0653553, 4.6643235]], [[-74.0653553, 4.6643235], [-74.0653825, 4.6642797]], [[-74.0653825, 4.6642797], [-74.0657918, 4.6636307]], [[-74.0657918, 4.6636307], [-74.0661046, 4.6631353]], [[-74.0661046, 4.6631353], [-74.0663762, 4.6627036]], [[-74.0663762, 4.6627036], [-74.0663962, 4.6626718]], [[-74.0663962, 4.6626718], [-74.0664241, 4.662627]]]}}, {"type": "Feature", "properties": {"highway": "tertiary", "oneway": "yes", "lanes": "2", "maxspeed": "30"}, "geometry": {"type": "MultiLineString", "coordinates": [[[-74.062441, 4.6032888], [-74.0624991, 4.6032793]], [[-74.0624991, 4.6032793], [-74.0626227, 4.6032621]], [[-74.0626227, 4.6032621], [-74.0628006, 4.603254]], [[-74.0628006, 4.603254], [-74.0629944, 4.6032529]], [[-74.0629944, 4.6032529], [-74.0633483, 4.6032559]], [[-74.0633483, 4.6032559], [-74.0634477, 4.6032517]], [[-74.0634477, 4.6032517], [-74.0635423, 4.6032438]], [[-74.0635423, 4.6032438], [-74.0636127, 4.6032327]], [[-74.0636127, 4.6032327], [-74.0636943, 4.6032087]], [[-74.0636943, 4.6032087], [-74.0639033, 4.6031411]], [[-74.0639033, 4.6031411], [-74.0639688, 4.6031263]], [[-74.0639688, 4.6031263], [-74.0640354, 4.6031182]], [[-74.0640354, 4.6031182], [-74.0640802, 4.6031159]], [[-74.0640802, 4.6031159], [-74.0641319, 4.6031205]], [[-74.0641319, 4.6031205], [-74.0641893, 4.6031297]], [[-74.0641893, 4.6031297], [-74.064233, 4.6031457]], [[-74.064233, 4.6031457], [-74.0642973, 4.6031778]], [[-74.0642973, 4.6031778], [-74.0644076, 4.6032597]], [[-74.0644076, 4.6032597], [-74.0644649, 4.6033022]]]}}, {"type": "Feature", "properties": {"highway": "primary_link", "oneway": "yes", "lanes": "1", "maxspeed": "30"}, "geometry": {"type": "MultiLineString", "coordinates": [[[-74.0570496, 4.678409], [-74.0572217, 4.6785123]], [[-74.0572217, 4.6785123], [-74.0573211, 4.6785691]], [[-74.0573211, 4.6785691], [-74.0576109, 4.6787353]], [[-74.0576109, 4.6787353], [-74.0576542, 4.6787692]], [[-74.0576542, 4.6787692], [-74.0576821, 4.6788034]], [[-74.0576821, 4.6788034], [-74.0577037, 4.6788354]], [[-74.0577037, 4.6788354], [-74.0577236, 4.6788703]], [[-74.0577236, 4.6788703], [-74.0577345, 4.6789083]], [[-74.0577345, 4.6789083], [-74.0577423, 4.6789354]], [[-74.0577423, 4.6789354], [-74.0577385, 4.6789804]], [[-74.0577385, 4.6789804], [-74.0577338, 4.6789932]], [[-74.0577338, 4.6789932], [-74.0577253, 4.6790165]], [[-74.0577253, 4.6790165], [-74.0577074, 4.6790518]], [[-74.0577074, 4.6790518], [-74.0576773, 4.6790807]], [[-74.0576773, 4.6790807], [-74.057645, 4.6791082]], [[-74.057645, 4.6791082], [-74.0574213, 4.6792587]], [[-74.0574213, 4.6792587], [-74.0569529, 4.67957]]]}}, {"type": "Feature", "properties": {"highway": "residential", "oneway": "no", "lanes": "2", "maxspeed": "20"}, "geometry": {"type": "MultiLineString", "coordinates": [[[-74.0327415, 4.704883], [-74.0326673, 4.7048813]], [[-74.0326673, 4.7048813], [-74.0326193, 4.7048807]], [[-74.0326193, 4.7048807], [-74.0321687, 4.7048685]], [[-74.0321687, 4.7048685], [-74.0321027, 4.7048667]]]}}, {"type": "Feature", "properties": {"highway": "primary_link", "oneway": "yes", "lanes": "2", "maxspeed": null}, "geometry": {"type": "MultiLineString", "coordinates": [[[-74.03606, 4.6945681], [-74.0358462, 4.6945071]], [[-74.0358462, 4.6945071], [-74.0355656, 4.6944101]], [[-74.0355656, 4.6944101], [-74.0353177, 4.6943151]], [[-74.0353177, 4.6943151], [-74.0350736, 4.6942077]], [[-74.0350736, 4.6942077], [-74.0350227, 4.6941781]], [[-74.0350227, 4.6941781], [-74.0349657, 4.694134]], [[-74.0349657, 4.694134], [-74.034929, 4.6941008]], [[-74.034929, 4.6941008], [-74.0348821, 4.694028]], [[-74.0348821, 4.694028], [-74.0348594, 4.6939665]], [[-74.0348594, 4.6939665], [-74.0348469, 4.693914]], [[-74.0348469, 4.693914], [-74.0348389, 4.6938515]], [[-74.0348389, 4.6938515], [-74.034837, 4.6937859]]]}}, {"type": "Feature", "properties": {"highway": "primary_link", "oneway": "yes", "lanes": "1", "maxspeed": null}, "geometry": {"type": "MultiLineString", "coordinates": [[[-74.0287066, 4.7026578], [-74.0287411, 4.7025232]], [[-74.0287411, 4.7025232], [-74.028769, 4.7024622]], [[-74.028769, 4.7024622], [-74.0288233, 4.7024018]], [[-74.0288233, 4.7024018], [-74.0288609, 4.7023724]], [[-74.0288609, 4.7023724], [-74.0289158, 4.7023444]], [[-74.0289158, 4.7023444], [-74.0289416, 4.7023387]], [[-74.0289416, 4.7023387], [-74.0289675, 4.702333]], [[-74.0289675, 4.702333], [-74.0290468, 4.7023148]]]}}, {"type": "Feature", "properties": {"highway": "residential", "oneway": "yes", "lanes": "2", "maxspeed": "20"}, "geometry": {"type": "MultiLineString", "coordinates": [[[-74.0321027, 4.7048667], [-74.0321072, 4.7045739]], [[-74.0321072, 4.7045739], [-74.0321082, 4.7045074]], [[-74.0321082, 4.7045074], [-74.032112, 4.7044274]], [[-74.032112, 4.7044274], [-74.0323952, 4.7035496]], [[-74.0323952, 4.7035496], [-74.0324065, 4.7035128]], [[-74.0324065, 4.7035128], [-74.0324287, 4.7034443]]]}}, {"type": "Feature", "properties": {"highway": "primary", "oneway": "yes", "lanes": "3", "maxspeed": null}, "geometry": {"type": "MultiLineString", "coordinates": [[[-74.0314834, 4.7030469], [-74.0317114, 4.7031202]], [[-74.0317114, 4.7031202], [-74.0323508, 4.7033439]], [[-74.0323508, 4.7033439], [-74.0326646, 4.7034553]], [[-74.0326646, 4.7034553], [-74.0327615, 4.7034844]], [[-74.0327615, 4.7034844], [-74.0328681, 4.7035135]], [[-74.0328681, 4.7035135], [-74.0330862, 4.703565]], [[-74.0330862, 4.703565], [-74.0335036, 4.7036564]], [[-74.0335036, 4.7036564], [-74.0339291, 4.7037631]], [[-74.0339291, 4.7037631], [-74.0343096, 4.7038658]], [[-74.0343096, 4.7038658], [-74.0344942, 4.7039242]]]}}, {"type": "Feature", "properties": {"highway": "secondary", "oneway": "yes", "lanes": "2", "maxspeed": null}, "geometry": {"type": "MultiLineString", "coordinates": [[[-74.0796983, 4.6522856], [-74.0772788, 4.6518472]]]}}, {"type": "Feature", "properties": {"highway": "tertiary", "oneway": "yes", "lanes": "2", "maxspeed": null}, "geometry": {"type": "MultiLineString", "coordinates": [[[-74.1190188, 4.6288897], [-74.119079, 4.6289274]], [[-74.119079, 4.6289274], [-74.1191287, 4.628965]], [[-74.1191287, 4.628965], [-74.1191576, 4.628995]], [[-74.1191576, 4.628995], [-74.1191744, 4.6290278]], [[-74.1191744, 4.6290278], [-74.1191866, 4.6290566]], [[-74.1191866, 4.6290566], [-74.1191927, 4.6290946]], [[-74.1191927, 4.6290946], [-74.1191897, 4.6291447]], [[-74.1191897, 4.6291447], [-74.1191779, 4.6291923]], [[-74.1191779, 4.6291923], [-74.1191517, 4.6292303]], [[-74.1191517, 4.6292303], [-74.1174086, 4.6311376]]]}}, {"type": "Feature", "properties": {"highway": "secondary", "oneway": "yes", "lanes": "2", "maxspeed": null}, "geometry": {"type": "MultiLineString", "coordinates": [[[-74.0741475, 4.6682815], [-74.0726638, 4.6671044]]]}}, {"type": "Feature", "properties": {"highway": "residential", "oneway": null, "lanes": "2", "maxspeed": "30"}, "geometry": {"type": "MultiLineString", "coordinates": [[[-74.0760258, 4.6719071], [-74.0759795, 4.6718716]], [[-74.0759795, 4.6718716], [-74.0755062, 4.671509]], [[-74.0755062, 4.671509], [-74.074969, 4.6710975]], [[-74.074969, 4.6710975], [-74.0744112, 4.6706701]], [[-74.0744112, 4.6706701], [-74.073887, 4.6702685]], [[-74.073887, 4.6702685], [-74.0733394, 4.669849]], [[-74.0733394, 4.669849], [-74.0729042, 4.6695156]]]}}, {"type": "Feature", "properties": {"highway": "secondary", "oneway": "yes", "lanes": "3", "maxspeed": "30"}, "geometry": {"type": "MultiLineString", "coordinates": [[[-74.0885253, 4.658948], [-74.0884307, 4.65892]], [[-74.0884307, 4.65892], [-74.0883716, 4.6588963]], [[-74.0883716, 4.6588963], [-74.0883697, 4.6588955]], [[-74.0883697, 4.6588955], [-74.0883021, 4.658849]], [[-74.0883021, 4.658849], [-74.0882412, 4.6587934]], [[-74.0882412, 4.6587934], [-74.0881926, 4.6587378]], [[-74.0881926, 4.6587378], [-74.0878703, 4.6582679]], [[-74.0878703, 4.6582679], [-74.0872244, 4.6573259]], [[-74.0872244, 4.6573259], [-74.0867154, 4.6565746]], [[-74.0867154, 4.6565746], [-74.0862569, 4.6559276]], [[-74.0862569, 4.6559276], [-74.0858776, 4.6553751]], [[-74.0858776, 4.6553751], [-74.0857519, 4.655194]], [[-74.0857519, 4.655194], [-74.0857001, 4.6551187]], [[-74.0857001, 4.6551187], [-74.0856244, 4.6550088]], [[-74.0856244, 4.6550088], [-74.0853255, 4.654632]], [[-74.0853255, 4.654632], [-74.0851941, 4.6544871]], [[-74.0851941, 4.6544871], [-74.0850791, 4.6543665]], [[-74.0850791, 4.6543665], [-74.0848321, 4.6541427]], [[-74.0848321, 4.6541427], [-74.0844488, 4.6538244]], [[-74.0844488, 4.6538244], [-74.0843883, 4.6537656]], [[-74.0843883, 4.6537656], [-74.0843552, 4.653723]], [[-74.0843552, 4.653723], [-74.0842217, 4.6535191]]]}}, {"type": "Feature", "properties": {"highway": "tertiary", "oneway": "yes", "lanes": "2", "maxspeed": null}, "geometry": {"type": "MultiLineString", "coordinates": [[[-74.0698034, 4.6479634], [-74.0697234, 4.6483318]], [[-74.0697234, 4.6483318], [-74.0696495, 4.6486721]], [[-74.0696495, 4.6486721], [-74.0696373, 4.6487285]]]}}, {"type": "Feature", "properties": {"highway": "primary", "oneway": "yes", "lanes": "2", "maxspeed": null}, "geometry": {"type": "MultiLineString", "coordinates": [[[-74.0748764, 4.7230165], [-74.0748749, 4.7225958]], [[-74.0748749, 4.7225958], [-74.0748868, 4.721987]], [[-74.0748868, 4.721987], [-74.0748901, 4.7216018]], [[-74.0748901, 4.7216018], [-74.0748841, 4.7212113]], [[-74.0748841, 4.7212113], [-74.0748714, 4.7207035]], [[-74.0748714, 4.7207035], [-74.0748637, 4.7205639]], [[-74.0748637, 4.7205639], [-74.0748425, 4.7204216]], [[-74.0748425, 4.7204216], [-74.0748211, 4.7203243]], [[-74.0748211, 4.7203243], [-74.0747776, 4.7201985]], [[-74.0747776, 4.7201985], [-74.0746718, 4.7199992]], [[-74.0746718, 4.7199992], [-74.074517, 4.7197478]]]}}, {"type": "Feature", "properties": {"highway": "trunk", "oneway": "yes", "lanes": "2", "maxspeed": "60"}, "geometry": {"type": "MultiLineString", "coordinates": [[[-74.1551712, 4.7579898], [-74.1573125, 4.7596244]]]}}, {"type": "Feature", "properties": {"highway": "trunk", "oneway": "yes", "lanes": "3", "maxspeed": "30"}, "geometry": {"type": "MultiLineString", "coordinates": [[[-74.0685348, 4.6749217], [-74.0687628, 4.6750711]], [[-74.0687628, 4.6750711], [-74.06887, 4.6751466]], [[-74.06887, 4.6751466], [-74.0689011, 4.6751708]], [[-74.0689011, 4.6751708], [-74.0693589, 4.6754722]], [[-74.0693589, 4.6754722], [-74.0701753, 4.6759899]], [[-74.0701753, 4.6759899], [-74.0712725, 4.6766939]], [[-74.0712725, 4.6766939], [-74.0719113, 4.6770958]], [[-74.0719113, 4.6770958], [-74.0726253, 4.6775467]], [[-74.0726253, 4.6775467], [-74.0733761, 4.6780297]], [[-74.0733761, 4.6780297], [-74.0736889, 4.6782373]], [[-74.0736889, 4.6782373], [-74.0739128, 4.6783918]], [[-74.0739128, 4.6783918], [-74.0739406, 4.678411]]]}}, {"type": "Feature", "properties": {"highway": "trunk", "oneway": "yes", "lanes": "3", "maxspeed": null}, "geometry": {"type": "MultiLineString", "coordinates": [[[-74.0666762, 4.6731102], [-74.0671615, 4.6736497]]]}}, {"type": "Feature", "properties": {"highway": "trunk", "oneway": "yes", "lanes": "3", "maxspeed": null}, "geometry": {"type": "MultiLineString", "coordinates": [[[-74.0786907, 4.6836389], [-74.079324, 4.6844603]]]}}, {"type": "Feature", "properties": {"highway": "trunk", "oneway": "yes", "lanes": "4", "maxspeed": "60"}, "geometry": {"type": "MultiLineString", "coordinates": [[[-74.1069578, 4.5982956], [-74.1068784, 4.5983549]]]}}, {"type": "Feature", "properties": {"highway": "secondary", "oneway": "yes", "lanes": "1", "maxspeed": "60"}, "geometry": {"type": "MultiLineString", "coordinates": [[[-74.0788492, 4.6345339], [-74.0789537, 4.634558]], [[-74.0789537, 4.634558], [-74.0790435, 4.6345746]], [[-74.0790435, 4.6345746], [-74.0790835, 4.634582]], [[-74.0790835, 4.634582], [-74.0791609, 4.63459]], [[-74.0791609, 4.63459], [-74.0792431, 4.6345875]], [[-74.0792431, 4.6345875], [-74.0793466, 4.6345679]], [[-74.0793466, 4.6345679], [-74.0794599, 4.6345269]], [[-74.0794599, 4.6345269], [-74.0795747, 4.6344597]], [[-74.0795747, 4.6344597], [-74.0796458, 4.6343988]], [[-74.0796458, 4.6343988], [-74.0797105, 4.6343349]], [[-74.0797105, 4.6343349], [-74.0797484, 4.6342788]], [[-74.0797484, 4.6342788], [-74.0797886, 4.6342124]], [[-74.0797886, 4.6342124], [-74.0798192, 4.6341344]], [[-74.0798192, 4.6341344], [-74.0798429, 4.6340367]], [[-74.0798429, 4.6340367], [-74.0798573, 4.6339391]], [[-74.0798573, 4.6339391], [-74.0798672, 4.6338235]], [[-74.0798672, 4.6338235], [-74.0798713, 4.6336363]]]}}, {"type": "Feature", "properties": {"highway": "secondary", "oneway": "yes", "lanes": "2", "maxspeed": "60"}, "geometry": {"type": "MultiLineString", "coordinates": [[[-74.0800896, 4.6320016], [-74.0800431, 4.6320353]], [[-74.0800431, 4.6320353], [-74.0799444, 4.6321121]], [[-74.0799444, 4.6321121], [-74.0798568, 4.6321963]], [[-74.0798568, 4.6321963], [-74.0797713, 4.6322859]], [[-74.0797713, 4.6322859], [-74.079694, 4.6323569]], [[-74.079694, 4.6323569], [-74.0796347, 4.6324017]], [[-74.0796347, 4.6324017], [-74.0795568, 4.6324344]], [[-74.0795568, 4.6324344], [-74.0795071, 4.6324391]], [[-74.0795071, 4.6324391], [-74.079446, 4.6324353]], [[-74.079446, 4.6324353], [-74.0793854, 4.6324212]], [[-74.0793854, 4.6324212], [-74.0793386, 4.6324028]], [[-74.0793386, 4.6324028], [-74.0792955, 4.6323804]], [[-74.0792955, 4.6323804], [-74.0792296, 4.6323285]], [[-74.0792296, 4.6323285], [-74.0791754, 4.6322765]]]}}, {"type": "Feature", "properties": {"highway": "secondary", "oneway": "yes", "lanes": "2", "maxspeed": "60"}, "geometry": {"type": "MultiLineString", "coordinates": [[[-74.0795664, 4.6341005], [-74.0795765, 4.6340172]], [[-74.0795765, 4.6340172], [-74.079594, 4.6338937]], [[-74.079594, 4.6338937], [-74.0796763, 4.6334962]], [[-74.0796763, 4.6334962], [-74.0796969, 4.6333589]], [[-74.0796969, 4.6333589], [-74.0796978, 4.6333171]], [[-74.0796978, 4.6333171], [-74.0796894, 4.6332752]], [[-74.0796894, 4.6332752], [-74.0796673, 4.6332158]], [[-74.0796673, 4.6332158], [-74.0794912, 4.6328848]], [[-74.0794912, 4.6328848], [-74.0792963, 4.6325492]], [[-74.0792963, 4.6325492], [-74.0792651, 4.6324917]], [[-74.0792651, 4.6324917], [-74.0792338, 4.6324189]], [[-74.0792338, 4.6324189], [-74.0791754, 4.6322765]]]}}, {"type": "Feature", "properties": {"highway": "trunk_link", "oneway": "yes", "lanes": "1", "maxspeed": null}, "geometry": {"type": "MultiLineString", "coordinates": [[[-74.1549205, 4.7576095], [-74.1547455, 4.7574845]], [[-74.1547455, 4.7574845], [-74.1543783, 4.7572154]], [[-74.1543783, 4.7572154], [-74.1540606, 4.7569981]], [[-74.1540606, 4.7569981], [-74.1537429, 4.7567809]], [[-74.1537429, 4.7567809], [-74.1532947, 4.756494]]]}}, {"type": "Feature", "properties": {"highway": "trunk", "oneway": "yes", "lanes": "3", "maxspeed": "50"}, "geometry": {"type": "MultiLineString", "coordinates": [[[-74.0878862, 4.6944682], [-74.0876959, 4.6942978]], [[-74.0876959, 4.6942978], [-74.0875094, 4.6941151]], [[-74.0875094, 4.6941151], [-74.0872443, 4.6938552]], [[-74.0872443, 4.6938552], [-74.0867961, 4.693391]], [[-74.0867961, 4.693391], [-74.0866434, 4.6932202]], [[-74.0866434, 4.6932202], [-74.0864602, 4.6930086]], [[-74.0864602, 4.6930086], [-74.0862508, 4.6927464]], [[-74.0862508, 4.6927464], [-74.0859775, 4.6924058]]]}}, {"type": "Feature", "properties": {"highway": "trunk", "oneway": "yes", "lanes": "4", "maxspeed": null}, "geometry": {"type": "MultiLineString", "coordinates": [[[-74.0682119, 4.674331], [-74.0679397, 4.6740773]], [[-74.0679397, 4.6740773], [-74.0677975, 4.6739356]], [[-74.0677975, 4.6739356], [-74.067639, 4.673764]], [[-74.067639, 4.673764], [-74.0669044, 4.6729317]]]}}, {"type": "Feature", "properties": {"highway": "trunk", "oneway": "yes", "lanes": "3", "maxspeed": null}, "geometry": {"type": "MultiLineString", "coordinates": [[[-74.0667959, 4.6728184], [-74.0663521, 4.6723841]], [[-74.0663521, 4.6723841], [-74.066116, 4.672136]], [[-74.066116, 4.672136], [-74.0658992, 4.671892]], [[-74.0658992, 4.671892], [-74.0656329, 4.6715623]]]}}, {"type": "Feature", "properties": {"highway": "trunk", "oneway": "yes", "lanes": "4", "maxspeed": null}, "geometry": {"type": "MultiLineString", "coordinates": [[[-74.0795702, 4.6842663], [-74.0788667, 4.6833935]]]}}, {"type": "Feature", "properties": {"highway": "secondary", "oneway": "yes", "lanes": "4", "maxspeed": null}, "geometry": {"type": "MultiLineString", "coordinates": [[[-74.0938196, 4.6403927], [-74.0944528, 4.6399821]], [[-74.0944528, 4.6399821], [-74.0953856, 4.6393772]]]}}, {"type": "Feature", "properties": {"highway": "trunk", "oneway": "yes", "lanes": "3", "maxspeed": "60"}, "geometry": {"type": "MultiLineString", "coordinates": [[[-74.0758367, 4.6649228], [-74.0759675, 4.6647277]], [[-74.0759675, 4.6647277], [-74.0760064, 4.6646837]], [[-74.0760064, 4.6646837], [-74.0760854, 4.6646152]]]}}, {"type": "Feature", "properties": {"highway": "trunk_link", "oneway": "yes", "lanes": "1", "maxspeed": null}, "geometry": {"type": "MultiLineString", "coordinates": [[[-74.1353889, 4.7384311], [-74.1354473, 4.738438]], [[-74.1354473, 4.738438], [-74.1356798, 4.7386847]], [[-74.1356798, 4.7386847], [-74.13571, 4.7386956]], [[-74.13571, 4.7386956], [-74.135742, 4.7386994]], [[-74.135742, 4.7386994], [-74.1357743, 4.7386956]], [[-74.1357743, 4.7386956], [-74.1358044, 4.7386847]], [[-74.1358044, 4.7386847], [-74.1358298, 4.7386683]], [[-74.1358298, 4.7386683], [-74.1358462, 4.7386527]], [[-74.1358462, 4.7386527], [-74.13586, 4.7386344]], [[-74.13586, 4.7386344], [-74.1358717, 4.7386113]], [[-74.1358717, 4.7386113], [-74.1358791, 4.7385851]], [[-74.1358791, 4.7385851], [-74.1358811, 4.7385529]], [[-74.1358811, 4.7385529], [-74.135875, 4.7385195]], [[-74.135875, 4.7385195], [-74.1357586, 4.7383607]], [[-74.1357586, 4.7383607], [-74.1357625, 4.738315]]]}}, {"type": "Feature", "properties": {"highway": "trunk_link", "oneway": "yes", "lanes": "1", "maxspeed": null}, "geometry": {"type": "MultiLineString", "coordinates": [[[-74.1362862, 4.7389758], [-74.1362525, 4.7389738]], [[-74.1362525, 4.7389738], [-74.136106, 4.7387877]], [[-74.136106, 4.7387877], [-74.1360578, 4.7387832]], [[-74.1360578, 4.7387832], [-74.1360105, 4.7387938]], [[-74.1360105, 4.7387938], [-74.1359687, 4.7388183]], [[-74.1359687, 4.7388183], [-74.1359366, 4.7388544]], [[-74.1359366, 4.7388544], [-74.1359171, 4.7388987]], [[-74.1359171, 4.7388987], [-74.1359123, 4.7389467]], [[-74.1359123, 4.7389467], [-74.1360311, 4.7391022]], [[-74.1360311, 4.7391022], [-74.136042, 4.7391601]]]}}, {"type": "Feature", "properties": {"highway": "trunk", "oneway": "yes", "lanes": "3", "maxspeed": null}, "geometry": {"type": "MultiLineString", "coordinates": [[[-74.124644, 4.7260902], [-74.1247454, 4.7262213]], [[-74.1247454, 4.7262213], [-74.1247672, 4.7262495]], [[-74.1247672, 4.7262495], [-74.1248055, 4.726299]], [[-74.1248055, 4.726299], [-74.1248417, 4.7263579]], [[-74.1248417, 4.7263579], [-74.1248712, 4.7264181]], [[-74.1248712, 4.7264181], [-74.1248935, 4.7264907]], [[-74.1248935, 4.7264907], [-74.1249118, 4.726609]], [[-74.1249118, 4.726609], [-74.1249363, 4.7267569]], [[-74.1249363, 4.7267569], [-74.1249592, 4.7269414]], [[-74.1249592, 4.7269414], [-74.1249784, 4.7270928]], [[-74.1249784, 4.7270928], [-74.1249915, 4.727158]], [[-74.1249915, 4.727158], [-74.1250109, 4.7272269]], [[-74.1250109, 4.7272269], [-74.1250356, 4.7272873]], [[-74.1250356, 4.7272873], [-74.125073, 4.7273579]], [[-74.125073, 4.7273579], [-74.1251153, 4.7274145]], [[-74.1251153, 4.7274145], [-74.1251727, 4.7274687]], [[-74.1251727, 4.7274687], [-74.1252426, 4.7275155]], [[-74.1252426, 4.7275155], [-74.125311, 4.7275532]], [[-74.125311, 4.7275532], [-74.1253998, 4.7275979]]]}}, {"type": "Feature", "properties": {"highway": "secondary", "oneway": "yes", "lanes": "3", "maxspeed": null}, "geometry": {"type": "MultiLineString", "coordinates": [[[-74.1253827, 4.7278991], [-74.1254929, 4.7277886]], [[-74.1254929, 4.7277886], [-74.1255209, 4.7277604]], [[-74.1255209, 4.7277604], [-74.1255979, 4.7276832]]]}}, {"type": "Feature", "properties": {"highway": "residential", "oneway": "yes", "lanes": "2", "maxspeed": null}, "geometry": {"type": "MultiLineString", "coordinates": [[[-74.0597013, 4.6643526], [-74.0597345, 4.6643713]], [[-74.0597345, 4.6643713], [-74.0597669, 4.6643897]], [[-74.0597669, 4.6643897], [-74.0602373, 4.6646554]], [[-74.0602373, 4.6646554], [-74.0603641, 4.664727]], [[-74.0603641, 4.664727], [-74.0604184, 4.6647561]], [[-74.0604184, 4.6647561], [-74.06063, 4.6648697]]]}}, {"type": "Feature", "properties": {"highway": "residential", "oneway": "yes", "lanes": "1", "maxspeed": null}, "geometry": {"type": "MultiLineString", "coordinates": [[[-74.0597361, 4.6679328], [-74.0598109, 4.6679622]], [[-74.0598109, 4.6679622], [-74.0598756, 4.6679828]], [[-74.0598756, 4.6679828], [-74.059916, 4.6679931]], [[-74.059916, 4.6679931], [-74.0599616, 4.6680007]], [[-74.0599616, 4.6680007], [-74.0600875, 4.6680109]]]}}, {"type": "Feature", "properties": {"highway": "trunk_link", "oneway": "yes", "lanes": "1", "maxspeed": null}, "geometry": {"type": "MultiLineString", "coordinates": [[[-74.0617883, 4.6668223], [-74.061574, 4.6664361]], [[-74.061574, 4.6664361], [-74.0613794, 4.6661422]], [[-74.0613794, 4.6661422], [-74.0612325, 4.6659211]], [[-74.0612325, 4.6659211], [-74.0612094, 4.6658728]], [[-74.0612094, 4.6658728], [-74.0611901, 4.6658062]], [[-74.0611901, 4.6658062], [-74.0611733, 4.6657253]], [[-74.0611733, 4.6657253], [-74.0611601, 4.6655281]], [[-74.0611601, 4.6655281], [-74.0611658, 4.6654631]], [[-74.0611658, 4.6654631], [-74.061174, 4.6654041]], [[-74.061174, 4.6654041], [-74.0612042, 4.6652882]]]}}, {"type": "Feature", "properties": {"highway": "trunk", "oneway": "yes", "lanes": "2", "maxspeed": null}, "geometry": {"type": "MultiLineString", "coordinates": [[[-74.0601931, 4.6711978], [-74.0601802, 4.6709951]], [[-74.0601802, 4.6709951], [-74.0601797, 4.6708838]], [[-74.0601797, 4.6708838], [-74.0601816, 4.6708051]], [[-74.0601816, 4.6708051], [-74.0602134, 4.6704953]], [[-74.0602134, 4.6704953], [-74.0602607, 4.670191]], [[-74.0602607, 4.670191], [-74.060315, 4.669875]], [[-74.060315, 4.669875], [-74.06034, 4.669754]], [[-74.06034, 4.669754], [-74.060348, 4.6696753]], [[-74.060348, 4.6696753], [-74.0603457, 4.6695907]], [[-74.0603457, 4.6695907], [-74.0603332, 4.6695118]], [[-74.0603332, 4.6695118], [-74.0603136, 4.6694101]], [[-74.0603136, 4.6694101], [-74.0603004, 4.669292]], [[-74.0603004, 4.669292], [-74.0602962, 4.6692001]], [[-74.0602962, 4.6692001], [-74.0603022, 4.6691151]], [[-74.0603022, 4.6691151], [-74.0603142, 4.6690449]], [[-74.0603142, 4.6690449], [-74.0603488, 4.6689229]], [[-74.0603488, 4.6689229], [-74.0605015, 4.6683568]], [[-74.0605015, 4.6683568], [-74.0605397, 4.6682251]], [[-74.0605397, 4.6682251], [-74.0605684, 4.6681198]], [[-74.0605684, 4.6681198], [-74.0605972, 4.6680145]]]}}, {"type": "Feature", "properties": {"highway": "trunk", "oneway": "yes", "lanes": "3", "maxspeed": null}, "geometry": {"type": "MultiLineString", "coordinates": [[[-74.0882806, 4.6951172], [-74.0897195, 4.695977]]]}}, {"type": "Feature", "properties": {"highway": "trunk", "oneway": "yes", "lanes": "3", "maxspeed": null}, "geometry": {"type": "MultiLineString", "coordinates": [[[-74.0903974, 4.6963069], [-74.090651, 4.6964152]], [[-74.090651, 4.6964152], [-74.0907721, 4.6964668]], [[-74.0907721, 4.6964668], [-74.0908906, 4.6965183]], [[-74.0908906, 4.6965183], [-74.0909785, 4.6965601]], [[-74.0909785, 4.6965601], [-74.0911468, 4.6966458]], [[-74.0911468, 4.6966458], [-74.0912864, 4.6967194]], [[-74.0912864, 4.6967194], [-74.0915641, 4.6968697]], [[-74.0915641, 4.6968697], [-74.0918321, 4.6970159]], [[-74.0918321, 4.6970159], [-74.0921712, 4.6972002]], [[-74.0921712, 4.6972002], [-74.0923419, 4.6972913]], [[-74.0923419, 4.6972913], [-74.0928423, 4.6975583]]]}}, {"type": "Feature", "properties": {"highway": "trunk", "oneway": "yes", "lanes": "4", "maxspeed": null}, "geometry": {"type": "MultiLineString", "coordinates": [[[-74.0900119, 4.6958477], [-74.0884139, 4.6948749]]]}}, {"type": "Feature", "properties": {"highway": "trunk", "oneway": "yes", "lanes": "4", "maxspeed": null}, "geometry": {"type": "MultiLineString", "coordinates": [[[-74.0826524, 4.6973857], [-74.082409, 4.6976159]], [[-74.082409, 4.6976159], [-74.0823234, 4.6977086]], [[-74.0823234, 4.6977086], [-74.0822278, 4.6978396]], [[-74.0822278, 4.6978396], [-74.082166, 4.6979352]], [[-74.082166, 4.6979352], [-74.0821122, 4.6980417]], [[-74.0821122, 4.6980417], [-74.0820587, 4.6981752]], [[-74.0820587, 4.6981752], [-74.0820283, 4.6982699]], [[-74.0820283, 4.6982699], [-74.0819714, 4.6984787]], [[-74.0819714, 4.6984787], [-74.0819397, 4.6986005]], [[-74.0819397, 4.6986005], [-74.0818845, 4.6988128]], [[-74.0818845, 4.6988128], [-74.0817448, 4.699364]]]}}, {"type": "Feature", "properties": {"highway": "secondary", "oneway": "yes", "lanes": "3", "maxspeed": null}, "geometry": {"type": "MultiLineString", "coordinates": [[[-74.094301, 4.6866891], [-74.095688, 4.687922]]]}}, {"type": "Feature", "properties": {"highway": "trunk_link", "oneway": "yes", "lanes": "1", "maxspeed": null}, "geometry": {"type": "MultiLineString", "coordinates": [[[-74.1110249, 4.666805], [-74.1109072, 4.6668676]], [[-74.1109072, 4.6668676], [-74.1108118, 4.6669142]], [[-74.1108118, 4.6669142], [-74.110719, 4.6669509]], [[-74.110719, 4.6669509], [-74.1106498, 4.6669686]], [[-74.1106498, 4.6669686], [-74.1105812, 4.6669759]], [[-74.1105812, 4.6669759], [-74.1105185, 4.6669693]], [[-74.1105185, 4.6669693], [-74.110446, 4.6669486]], [[-74.110446, 4.6669486], [-74.1103841, 4.6669105]], [[-74.1103841, 4.6669105], [-74.1103497, 4.6668806]], [[-74.1103497, 4.6668806], [-74.1103392, 4.6668714]], [[-74.1103392, 4.6668714], [-74.1100351, 4.6665488]], [[-74.1100351, 4.6665488], [-74.1093321, 4.6658109]], [[-74.1093321, 4.6658109], [-74.1093061, 4.6657788]], [[-74.1093061, 4.6657788], [-74.1092917, 4.6657466]], [[-74.1092917, 4.6657466], [-74.1092798, 4.6657112]], [[-74.1092798, 4.6657112], [-74.1092772, 4.6656759]], [[-74.1092772, 4.6656759], [-74.1092763, 4.6656253]], [[-74.1092763, 4.6656253], [-74.109287, 4.6655726]], [[-74.109287, 4.6655726], [-74.1093259, 4.6655046]], [[-74.1093259, 4.6655046], [-74.1093764, 4.6654529]], [[-74.1093764, 4.6654529], [-74.109656, 4.6652114]], [[-74.109656, 4.6652114], [-74.1098293, 4.6650616]], [[-74.1098293, 4.6650616], [-74.109965, 4.6649329]], [[-74.109965, 4.6649329], [-74.1100291, 4.6648892]], [[-74.1100291, 4.6648892], [-74.1100888, 4.6648673]], [[-74.1100888, 4.6648673], [-74.1101413, 4.6648599]], [[-74.1101413, 4.6648599], [-74.1102119, 4.6648736]], [[-74.1102119, 4.6648736], [-74.1102741, 4.6648931]], [[-74.1102741, 4.6648931], [-74.1103899, 4.6649521]]]}}, {"type": "Feature", "properties": {"highway": "trunk_link", "oneway": "yes", "lanes": "1", "maxspeed": null}, "geometry": {"type": "MultiLineString", "coordinates": [[[-74.1108861, 4.6674354], [-74.1109562, 4.6674268]], [[-74.1109562, 4.6674268], [-74.111032, 4.6674462]], [[-74.111032, 4.6674462], [-74.111075, 4.6674766]], [[-74.111075, 4.6674766], [-74.111105, 4.6675005]], [[-74.111105, 4.6675005], [-74.1113223, 4.6678359]], [[-74.1113223, 4.6678359], [-74.1113636, 4.6678867]], [[-74.1113636, 4.6678867], [-74.1114245, 4.6679398]], [[-74.1114245, 4.6679398], [-74.1114892, 4.6679769]], [[-74.1114892, 4.6679769], [-74.1115585, 4.667999]], [[-74.1115585, 4.667999], [-74.1117637, 4.6680386]], [[-74.1117637, 4.6680386], [-74.1119064, 4.668065]], [[-74.1119064, 4.668065], [-74.112109, 4.6681025]], [[-74.112109, 4.6681025], [-74.1121908, 4.6681429]], [[-74.1121908, 4.6681429], [-74.1122283, 4.6681666]], [[-74.1122283, 4.6681666], [-74.1122457, 4.6681776]], [[-74.1122457, 4.6681776], [-74.1123109, 4.668248]], [[-74.1123109, 4.668248], [-74.1123713, 4.6683307]], [[-74.1123713, 4.6683307], [-74.1124433, 4.6684293]], [[-74.1124433, 4.6684293], [-74.1126302, 4.6686978]], [[-74.1126302, 4.6686978], [-74.1128868, 4.669072]]]}}, {"type": "Feature", "properties": {"highway": "trunk_link", "oneway": "yes", "lanes": "1", "maxspeed": "30"}, "geometry": {"type": "MultiLineString", "coordinates": [[[-74.1134806, 4.668714], [-74.1132622, 4.6683011]], [[-74.1132622, 4.6683011], [-74.1130354, 4.6679024]], [[-74.1130354, 4.6679024], [-74.1129848, 4.6678036]], [[-74.1129848, 4.6678036], [-74.1129654, 4.6677362]], [[-74.1129654, 4.6677362], [-74.1129565, 4.6676485]], [[-74.1129565, 4.6676485], [-74.1129528, 4.66761]], [[-74.1129528, 4.66761], [-74.1129602, 4.6675098]], [[-74.1129602, 4.6675098], [-74.1129891, 4.6673407]], [[-74.1129891, 4.6673407], [-74.1130148, 4.6671891]], [[-74.1130148, 4.6671891], [-74.1130199, 4.667102]], [[-74.1130199, 4.667102], [-74.1130107, 4.6669774]], [[-74.1130107, 4.6669774], [-74.1129878, 4.6668791]], [[-74.1129878, 4.6668791], [-74.1129546, 4.6667455]], [[-74.1129546, 4.6667455], [-74.1128907, 4.6665479]], [[-74.1128907, 4.6665479], [-74.1127991, 4.6663356]], [[-74.1127991, 4.6663356], [-74.1127528, 4.6661647]], [[-74.1127528, 4.6661647], [-74.1127297, 4.6660154]], [[-74.1127297, 4.6660154], [-74.1127235, 4.6658903]], [[-74.1127235, 4.6658903], [-74.1127272, 4.6658193]], [[-74.1127272, 4.6658193], [-74.112727, 4.6657642]], [[-74.112727, 4.6657642], [-74.1127589, 4.6656519]], [[-74.1127589, 4.6656519], [-74.1128085, 4.6654831]], [[-74.1128085, 4.6654831], [-74.1128421, 4.6653949]], [[-74.1128421, 4.6653949], [-74.1128919, 4.6652886]]]}}, {"type": "Feature", "properties": {"highway": "trunk_link", "oneway": "yes", "lanes": "1", "maxspeed": null}, "geometry": {"type": "MultiLineString", "coordinates": [[[-74.1097806, 4.6641575], [-74.1099756, 4.6645333]], [[-74.1099756, 4.6645333], [-74.1100088, 4.6646049]], [[-74.1100088, 4.6646049], [-74.1100148, 4.6646389]], [[-74.1100148, 4.6646389], [-74.1100161, 4.6646742]], [[-74.1100161, 4.6646742], [-74.1100145, 4.6646886]], [[-74.1100145, 4.6646886], [-74.1100079, 4.6647465]], [[-74.1100079, 4.6647465], [-74.1099938, 4.6647896]], [[-74.1099938, 4.6647896], [-74.1099515, 4.6648345]], [[-74.1099515, 4.6648345], [-74.1096305, 4.6651271]], [[-74.1096305, 4.6651271], [-74.1093034, 4.6654138]], [[-74.1093034, 4.6654138], [-74.1092509, 4.6654645]], [[-74.1092509, 4.6654645], [-74.1092135, 4.6655198]], [[-74.1092135, 4.6655198], [-74.1091939, 4.665585]], [[-74.1091939, 4.665585], [-74.1091901, 4.6656437]], [[-74.1091901, 4.6656437], [-74.1091973, 4.6657135]], [[-74.1091973, 4.6657135], [-74.1092201, 4.6657834]], [[-74.1092201, 4.6657834], [-74.1092542, 4.6658424]], [[-74.1092542, 4.6658424], [-74.1092964, 4.6658922]], [[-74.1092964, 4.6658922], [-74.1094974, 4.6660987]], [[-74.1094974, 4.6660987], [-74.1098671, 4.6664785]], [[-74.1098671, 4.6664785], [-74.1098941, 4.6665062]], [[-74.1098941, 4.6665062], [-74.1102291, 4.6668598]], [[-74.1102291, 4.6668598], [-74.1102997, 4.666926]], [[-74.1102997, 4.666926], [-74.1103581, 4.6669807]], [[-74.1103581, 4.6669807], [-74.1104366, 4.6670435]], [[-74.1104366, 4.6670435], [-74.1104929, 4.6671063]], [[-74.1104929, 4.6671063], [-74.1105229, 4.667164]], [[-74.1105229, 4.667164], [-74.1105382, 4.6672284]], [[-74.1105382, 4.6672284], [-74.1105359, 4.6672807]], [[-74.1105359, 4.6672807], [-74.1105295, 4.6673129]], [[-74.1105295, 4.6673129], [-74.1105224, 4.6673455]], [[-74.1105224, 4.6673455], [-74.1104795, 4.6674414]]]}}, {"type": "Feature", "properties": {"highway": "primary", "oneway": "yes", "lanes": "3", "maxspeed": null}, "geometry": {"type": "MultiLineString", "coordinates": [[[-74.1122919, 4.6670519], [-74.1114534, 4.6658027]]]}}, {"type": "Feature", "properties": {"highway": "trunk_link", "oneway": "yes", "lanes": "1", "maxspeed": null}, "geometry": {"type": "MultiLineString", "coordinates": [[[-74.112614, 4.6650776], [-74.1124552, 4.6651765]], [[-74.1124552, 4.6651765], [-74.1124461, 4.6651801]], [[-74.1124461, 4.6651801], [-74.1123836, 4.6652044]], [[-74.1123836, 4.6652044], [-74.1123254, 4.6652189]], [[-74.1123254, 4.6652189], [-74.1122542, 4.6652193]], [[-74.1122542, 4.6652193], [-74.1121393, 4.6651817]], [[-74.1121393, 4.6651817], [-74.1120384, 4.6651371]], [[-74.1120384, 4.6651371], [-74.111795, 4.6650269]], [[-74.111795, 4.6650269], [-74.1117097, 4.6649975]], [[-74.1117097, 4.6649975], [-74.1116216, 4.6649792]], [[-74.1116216, 4.6649792], [-74.1114844, 4.6649748]], [[-74.1114844, 4.6649748], [-74.111365, 4.6649688]], [[-74.111365, 4.6649688], [-74.1113063, 4.6649594]], [[-74.1113063, 4.6649594], [-74.11125, 4.6649361]], [[-74.11125, 4.6649361], [-74.1112253, 4.664919]], [[-74.1112253, 4.664919], [-74.1111866, 4.6648922]], [[-74.1111866, 4.6648922], [-74.1111209, 4.6648296]], [[-74.1111209, 4.6648296], [-74.111, 4.6647087]], [[-74.111, 4.6647087], [-74.1108755, 4.6645639]], [[-74.1108755, 4.6645639], [-74.1106251, 4.6642058]], [[-74.1106251, 4.6642058], [-74.1104638, 4.6639854]], [[-74.1104638, 4.6639854], [-74.1103388, 4.6637913]], [[-74.1103388, 4.6637913], [-74.1102054, 4.6636255]]]}}, {"type": "Feature", "properties": {"highway": "trunk_link", "oneway": "yes", "lanes": "1", "maxspeed": null}, "geometry": {"type": "MultiLineString", "coordinates": [[[-74.1111656, 4.6653639], [-74.1111556, 4.6652649]], [[-74.1111556, 4.6652649], [-74.1111573, 4.6651834]], [[-74.1111573, 4.6651834], [-74.1111751, 4.6651379]], [[-74.1111751, 4.6651379], [-74.1112, 4.6651017]], [[-74.1112, 4.6651017], [-74.1112213, 4.6650853]], [[-74.1112213, 4.6650853], [-74.111247, 4.6650655]], [[-74.111247, 4.6650655], [-74.111315, 4.6650526]], [[-74.111315, 4.6650526], [-74.1114247, 4.6650637]], [[-74.1114247, 4.6650637], [-74.1115442, 4.6650781]], [[-74.1115442, 4.6650781], [-74.1116719, 4.665103]], [[-74.1116719, 4.665103], [-74.1117647, 4.6651404]], [[-74.1117647, 4.6651404], [-74.1118342, 4.6651779]], [[-74.1118342, 4.6651779], [-74.1119005, 4.6652199]], [[-74.1119005, 4.6652199], [-74.1119528, 4.6652713]], [[-74.1119528, 4.6652713], [-74.1120024, 4.6653298]], [[-74.1120024, 4.6653298], [-74.112031, 4.6653883]], [[-74.112031, 4.6653883], [-74.1120465, 4.6654535]], [[-74.1120465, 4.6654535], [-74.1120503, 4.6655187]], [[-74.1120503, 4.6655187], [-74.1120383, 4.6655742]], [[-74.1120383, 4.6655742], [-74.1120262, 4.6656297]], [[-74.1120262, 4.6656297], [-74.1120054, 4.6656905]], [[-74.1120054, 4.6656905], [-74.1119863, 4.66574]], [[-74.1119863, 4.66574], [-74.1119356, 4.6658557]]]}}, {"type": "Feature", "properties": {"highway": "secondary", "oneway": "yes", "lanes": "2", "maxspeed": "30"}, "geometry": {"type": "MultiLineString", "coordinates": [[[-74.119873, 4.6660455], [-74.119835, 4.6660025]], [[-74.119835, 4.6660025], [-74.1188007, 4.6648319]], [[-74.1188007, 4.6648319], [-74.1186213, 4.6646291]], [[-74.1186213, 4.6646291], [-74.118409, 4.6643889]]]}}, {"type": "Feature", "properties": {"highway": "secondary", "oneway": "yes", "lanes": "2", "maxspeed": null}, "geometry": {"type": "MultiLineString", "coordinates": [[[-74.1150099, 4.6605091], [-74.1147829, 4.6602509]], [[-74.1147829, 4.6602509], [-74.114409, 4.6598563]], [[-74.114409, 4.6598563], [-74.1143068, 4.6597236]], [[-74.1143068, 4.6597236], [-74.1142588, 4.6596413]]]}}, {"type": "Feature", "properties": {"highway": "secondary", "oneway": "yes", "lanes": "3", "maxspeed": null}, "geometry": {"type": "MultiLineString", "coordinates": [[[-74.1164292, 4.6621388], [-74.1153542, 4.660922]]]}}, {"type": "Feature", "properties": {"highway": "trunk_link", "oneway": "yes", "lanes": "2", "maxspeed": null}, "geometry": {"type": "MultiLineString", "coordinates": [[[-74.115337, 4.6619261], [-74.1151681, 4.6620497]], [[-74.1151681, 4.6620497], [-74.1151385, 4.6620679]], [[-74.1151385, 4.6620679], [-74.1151058, 4.6620836]], [[-74.1151058, 4.6620836], [-74.1150708, 4.6620935]], [[-74.1150708, 4.6620935], [-74.1150391, 4.6620937]], [[-74.1150391, 4.6620937], [-74.1150113, 4.6620916]], [[-74.1150113, 4.6620916], [-74.1150015, 4.6620889]], [[-74.1150015, 4.6620889], [-74.1149804, 4.662083]], [[-74.1149804, 4.662083], [-74.1149504, 4.6620699]], [[-74.1149504, 4.6620699], [-74.1149202, 4.6620489]], [[-74.1149202, 4.6620489], [-74.1148909, 4.6620244]], [[-74.1148909, 4.6620244], [-74.1147492, 4.6619065]], [[-74.1147492, 4.6619065], [-74.1147065, 4.6618709]], [[-74.1147065, 4.6618709], [-74.1145511, 4.6617415]], [[-74.1145511, 4.6617415], [-74.1143198, 4.661549]], [[-74.1143198, 4.661549], [-74.1142785, 4.6614998]], [[-74.1142785, 4.6614998], [-74.1142532, 4.6614447]], [[-74.1142532, 4.6614447], [-74.1142353, 4.6613837]]]}}, {"type": "Feature", "properties": {"highway": "trunk_link", "oneway": "yes", "lanes": "1", "maxspeed": "30"}, "geometry": {"type": "MultiLineString", "coordinates": [[[-74.1146161, 4.6602427], [-74.1146616, 4.6603531]], [[-74.1146616, 4.6603531], [-74.1146775, 4.66041]], [[-74.1146775, 4.66041], [-74.1146847, 4.6604602]], [[-74.1146847, 4.6604602], [-74.1146853, 4.6605106]], [[-74.1146853, 4.6605106], [-74.1146774, 4.6605559]], [[-74.1146774, 4.6605559], [-74.1146594, 4.6605975]], [[-74.1146594, 4.6605975], [-74.1146378, 4.6606318]], [[-74.1146378, 4.6606318], [-74.1145954, 4.660683]], [[-74.1145954, 4.660683], [-74.1145886, 4.6606918]], [[-74.1145886, 4.6606918], [-74.1145371, 4.6607535]]]}}, {"type": "Feature", "properties": {"highway": "trunk_link", "oneway": "yes", "lanes": "2", "maxspeed": null}, "geometry": {"type": "MultiLineString", "coordinates": [[[-74.1147137, 4.6631681], [-74.1147688, 4.6631569]], [[-74.1147688, 4.6631569], [-74.1148182, 4.6631545]], [[-74.1148182, 4.6631545], [-74.1148676, 4.6631741]], [[-74.1148676, 4.6631741], [-74.1148963, 4.6631879]], [[-74.1148963, 4.6631879], [-74.1149322, 4.6632106]], [[-74.1149322, 4.6632106], [-74.114969, 4.6632402]], [[-74.114969, 4.6632402], [-74.1152477, 4.6634867]], [[-74.1152477, 4.6634867], [-74.1153542, 4.6635809]]]}}, {"type": "Feature", "properties": {"highway": "trunk_link", "oneway": "yes", "lanes": "2", "maxspeed": null}, "geometry": {"type": "MultiLineString", "coordinates": [[[-74.1164346, 4.6625857], [-74.1164161, 4.6626318]], [[-74.1164161, 4.6626318], [-74.1163924, 4.6626652]], [[-74.1163924, 4.6626652], [-74.1160475, 4.6630658]], [[-74.1160475, 4.6630658], [-74.1156534, 4.6635235]], [[-74.1156534, 4.6635235], [-74.1156183, 4.663553]], [[-74.1156183, 4.663553], [-74.1155921, 4.6635662]], [[-74.1155921, 4.6635662], [-74.1155591, 4.6635753]], [[-74.1155591, 4.6635753], [-74.1155105, 4.6635768]]]}}, {"type": "Feature", "properties": {"highway": "trunk_link", "oneway": "yes", "lanes": "1", "maxspeed": null}, "geometry": {"type": "MultiLineString", "coordinates": [[[-74.1167622, 4.6625201], [-74.1167516, 4.6624725]], [[-74.1167516, 4.6624725], [-74.1167484, 4.6624358]], [[-74.1167484, 4.6624358], [-74.1167564, 4.6623928]], [[-74.1167564, 4.6623928], [-74.1167698, 4.6623453]], [[-74.1167698, 4.6623453], [-74.1167883, 4.6623042]], [[-74.1167883, 4.6623042], [-74.1168128, 4.6622692]], [[-74.1168128, 4.6622692], [-74.1168379, 4.6622366]], [[-74.1168379, 4.6622366], [-74.1169744, 4.6620808]], [[-74.1169744, 4.6620808], [-74.1170373, 4.6619992]], [[-74.1170373, 4.6619992], [-74.1170838, 4.6619349]], [[-74.1170838, 4.6619349], [-74.1171073, 4.6618959]], [[-74.1171073, 4.6618959], [-74.117163, 4.6617768]], [[-74.117163, 4.6617768], [-74.1171944, 4.6616985]], [[-74.1171944, 4.6616985], [-74.1172308, 4.6616049]], [[-74.1172308, 4.6616049], [-74.1172424, 4.6615518]], [[-74.1172424, 4.6615518], [-74.1172454, 4.6614912]], [[-74.1172454, 4.6614912], [-74.117238, 4.6614389]], [[-74.117238, 4.6614389], [-74.1172201, 4.6613913]], [[-74.1172201, 4.6613913], [-74.1171875, 4.6613458]], [[-74.1171875, 4.6613458], [-74.1171304, 4.6612889]], [[-74.1171304, 4.6612889], [-74.1170588, 4.6612285]], [[-74.1170588, 4.6612285], [-74.1170392, 4.661212]], [[-74.1170392, 4.661212], [-74.1169792, 4.6611562]], [[-74.1169792, 4.6611562], [-74.1168442, 4.6610321]], [[-74.1168442, 4.6610321], [-74.1168169, 4.6610015]], [[-74.1168169, 4.6610015], [-74.1167939, 4.6609689]], [[-74.1167939, 4.6609689], [-74.1167658, 4.6609153]], [[-74.1167658, 4.6609153], [-74.1167602, 4.6608708]], [[-74.1167602, 4.6608708], [-74.1167569, 4.6608068]]]}}, {"type": "Feature", "properties": {"highway": "trunk_link", "oneway": "yes", "lanes": "2", "maxspeed": null}, "geometry": {"type": "MultiLineString", "coordinates": [[[-74.1161224, 4.6610102], [-74.1160555, 4.661035]], [[-74.1160555, 4.661035], [-74.1160208, 4.6610488]], [[-74.1160208, 4.6610488], [-74.1159634, 4.6610653]], [[-74.1159634, 4.6610653], [-74.115899, 4.6610756]], [[-74.115899, 4.6610756], [-74.1158356, 4.6610776]], [[-74.1158356, 4.6610776], [-74.1157777, 4.6610725]], [[-74.1157777, 4.6610725], [-74.1157114, 4.6610577]], [[-74.1157114, 4.6610577], [-74.1156385, 4.6610221]], [[-74.1156385, 4.6610221], [-74.1155745, 4.660974]], [[-74.1155745, 4.660974], [-74.115515, 4.6609137]]]}}, {"type": "Feature", "properties": {"highway": "primary", "oneway": "yes", "lanes": "3", "maxspeed": null}, "geometry": {"type": "MultiLineString", "coordinates": [[[-74.1271321, 4.6496917], [-74.125986, 4.648302]]]}}, {"type": "Feature", "properties": {"highway": "primary", "oneway": "yes", "lanes": "3", "maxspeed": null}, "geometry": {"type": "MultiLineString", "coordinates": [[[-74.1259003, 4.6483702], [-74.1270397, 4.6497548]]]}}, {"type": "Feature", "properties": {"highway": "primary", "oneway": "yes", "lanes": "3", "maxspeed": null}, "geometry": {"type": "MultiLineString", "coordinates": [[[-74.1243718, 4.6454825], [-74.1243356, 4.6453214]], [[-74.1243356, 4.6453214], [-74.1242532, 4.6448688]], [[-74.1242532, 4.6448688], [-74.1241585, 4.6442674]], [[-74.1241585, 4.6442674], [-74.124088, 4.6438207]], [[-74.124088, 4.6438207], [-74.1239941, 4.6432868]], [[-74.1239941, 4.6432868], [-74.1239197, 4.6428323]], [[-74.1239197, 4.6428323], [-74.1238494, 4.6423963]], [[-74.1238494, 4.6423963], [-74.1238167, 4.6422454]], [[-74.1238167, 4.6422454], [-74.123777, 4.6421051]], [[-74.123777, 4.6421051], [-74.1237389, 4.6419793]], [[-74.1237389, 4.6419793], [-74.1236926, 4.6418596]], [[-74.1236926, 4.6418596], [-74.1236162, 4.641683]], [[-74.1236162, 4.641683], [-74.1235042, 4.6414555]], [[-74.1235042, 4.6414555], [-74.1234188, 4.6412983]], [[-74.1234188, 4.6412983], [-74.1233143, 4.6411332]], [[-74.1233143, 4.6411332], [-74.1231847, 4.6409305]]]}}, {"type": "Feature", "properties": {"highway": "trunk_link", "oneway": "yes", "lanes": "1", "maxspeed": null}, "geometry": {"type": "MultiLineString", "coordinates": [[[-74.1272059, 4.6499646], [-74.1273926, 4.6502879]], [[-74.1273926, 4.6502879], [-74.1274161, 4.6503564]], [[-74.1274161, 4.6503564], [-74.1274142, 4.6504041]], [[-74.1274142, 4.6504041], [-74.1274079, 4.6504611]], [[-74.1274079, 4.6504611], [-74.1273829, 4.6505238]], [[-74.1273829, 4.6505238], [-74.1273438, 4.6505835]], [[-74.1273438, 4.6505835], [-74.1273033, 4.6506264]], [[-74.1273033, 4.6506264], [-74.127253, 4.6506538]], [[-74.127253, 4.6506538], [-74.1271878, 4.6506762]], [[-74.1271878, 4.6506762], [-74.1271319, 4.650678]], [[-74.1271319, 4.650678], [-74.1270775, 4.6506661]], [[-74.1270775, 4.6506661], [-74.1270184, 4.6506439]], [[-74.1270184, 4.6506439], [-74.1269619, 4.650607]], [[-74.1269619, 4.650607], [-74.1265365, 4.6501491]], [[-74.1265365, 4.6501491], [-74.1264809, 4.6500792]], [[-74.1264809, 4.6500792], [-74.1264544, 4.6500349]], [[-74.1264544, 4.6500349], [-74.1264364, 4.6499979]], [[-74.1264364, 4.6499979], [-74.1264225, 4.6499571]], [[-74.1264225, 4.6499571], [-74.1264196, 4.6499207]], [[-74.1264196, 4.6499207], [-74.1264167, 4.6498895]], [[-74.1264167, 4.6498895], [-74.1264185, 4.6498623]], [[-74.1264185, 4.6498623], [-74.1264228, 4.6498071]], [[-74.1264228, 4.6498071], [-74.1264382, 4.6497519]], [[-74.1264382, 4.6497519], [-74.1265325, 4.6495868]]]}}, {"type": "Feature", "properties": {"highway": "trunk_link", "oneway": "yes", "lanes": "1", "maxspeed": null}, "geometry": {"type": "MultiLineString", "coordinates": [[[-74.1259325, 4.6502241], [-74.126085, 4.6501359]], [[-74.126085, 4.6501359], [-74.126133, 4.6501202]], [[-74.126133, 4.6501202], [-74.126216, 4.6501057]], [[-74.126216, 4.6501057], [-74.126281, 4.650112]], [[-74.126281, 4.650112], [-74.1263343, 4.6501221]], [[-74.1263343, 4.6501221], [-74.1263692, 4.6501352]], [[-74.1263692, 4.6501352], [-74.1264042, 4.6501533]], [[-74.1264042, 4.6501533], [-74.1264444, 4.650182]], [[-74.1264444, 4.650182], [-74.1269138, 4.6506727]], [[-74.1269138, 4.6506727], [-74.1269508, 4.6507036]], [[-74.1269508, 4.6507036], [-74.1270147, 4.6507423]], [[-74.1270147, 4.6507423], [-74.1270778, 4.6507608]], [[-74.1270778, 4.6507608], [-74.1271511, 4.6507715]], [[-74.1271511, 4.6507715], [-74.1272379, 4.6507667]], [[-74.1272379, 4.6507667], [-74.1273286, 4.6507407]], [[-74.1273286, 4.6507407], [-74.1274422, 4.6507093]], [[-74.1274422, 4.6507093], [-74.1275249, 4.6506956]], [[-74.1275249, 4.6506956], [-74.127612, 4.6506998]], [[-74.127612, 4.6506998], [-74.127688, 4.6507236]], [[-74.127688, 4.6507236], [-74.1277601, 4.6507783]], [[-74.1277601, 4.6507783], [-74.1279659, 4.6510003]], [[-74.1279659, 4.6510003], [-74.1282813, 4.6512686]]]}}, {"type": "Feature", "properties": {"highway": "trunk_link", "oneway": "yes", "lanes": "1", "maxspeed": null}, "geometry": {"type": "MultiLineString", "coordinates": [[[-74.1280772, 4.6508366], [-74.1279717, 4.6506594]], [[-74.1279717, 4.6506594], [-74.1279448, 4.6505868]], [[-74.1279448, 4.6505868], [-74.1279325, 4.6505363]], [[-74.1279325, 4.6505363], [-74.1279254, 4.6504606]], [[-74.1279254, 4.6504606], [-74.1279236, 4.6503841]], [[-74.1279236, 4.6503841], [-74.127967, 4.6500004]], [[-74.127967, 4.6500004], [-74.1279613, 4.649921]], [[-74.1279613, 4.649921], [-74.1279409, 4.6498737]], [[-74.1279409, 4.6498737], [-74.1279259, 4.6498389]], [[-74.1279259, 4.6498389], [-74.1278509, 4.6497416]], [[-74.1278509, 4.6497416], [-74.1274179, 4.6492826]], [[-74.1274179, 4.6492826], [-74.127378, 4.6492289]], [[-74.127378, 4.6492289], [-74.1273497, 4.6491752]], [[-74.1273497, 4.6491752], [-74.1273363, 4.6491073]], [[-74.1273363, 4.6491073], [-74.1273398, 4.6490532]], [[-74.1273398, 4.6490532], [-74.127358, 4.6489809]], [[-74.127358, 4.6489809], [-74.1274137, 4.6488808]], [[-74.1274137, 4.6488808], [-74.1274943, 4.6487646]]]}}, {"type": "Feature", "properties": {"highway": "trunk_link", "oneway": "yes", "lanes": "1", "maxspeed": null}, "geometry": {"type": "MultiLineString", "coordinates": [[[-74.1269647, 4.6491956], [-74.1270518, 4.6491782]], [[-74.1270518, 4.6491782], [-74.1271092, 4.6491702]], [[-74.1271092, 4.6491702], [-74.1271736, 4.6491806]], [[-74.1271736, 4.6491806], [-74.1272234, 4.6492098]], [[-74.1272234, 4.6492098], [-74.1272963, 4.6492748]], [[-74.1272963, 4.6492748], [-74.1278256, 4.6498386]], [[-74.1278256, 4.6498386], [-74.1278605, 4.649893]], [[-74.1278605, 4.649893], [-74.1278762, 4.649957]], [[-74.1278762, 4.649957], [-74.1278719, 4.6500117]], [[-74.1278719, 4.6500117], [-74.1278594, 4.6500618]], [[-74.1278594, 4.6500618], [-74.1278364, 4.6501144]], [[-74.1278364, 4.6501144], [-74.1277843, 4.6501639]], [[-74.1277843, 4.6501639], [-74.1277325, 4.6501869]], [[-74.1277325, 4.6501869], [-74.1276912, 4.6501922]], [[-74.1276912, 4.6501922], [-74.1276448, 4.6501924]], [[-74.1276448, 4.6501924], [-74.1276064, 4.6501773]], [[-74.1276064, 4.6501773], [-74.1274251, 4.6500457]]]}}, {"type": "Feature", "properties": {"highway": "trunk_link", "oneway": "yes", "lanes": "1", "maxspeed": null}, "geometry": {"type": "MultiLineString", "coordinates": [[[-74.1262659, 4.6491797], [-74.1261216, 4.6492362]], [[-74.1261216, 4.6492362], [-74.1260476, 4.6492438]], [[-74.1260476, 4.6492438], [-74.1260034, 4.6492428]], [[-74.1260034, 4.6492428], [-74.1259711, 4.649242]], [[-74.1259711, 4.649242], [-74.1258946, 4.6492212]], [[-74.1258946, 4.6492212], [-74.1258419, 4.6491928]], [[-74.1258419, 4.6491928], [-74.1257912, 4.6491509]], [[-74.1257912, 4.6491509], [-74.1257509, 4.6491125]], [[-74.1257509, 4.6491125], [-74.1253631, 4.6486226]], [[-74.1253631, 4.6486226], [-74.1253146, 4.648547]], [[-74.1253146, 4.648547], [-74.1252987, 4.6484716]], [[-74.1252987, 4.6484716], [-74.1253033, 4.648399]], [[-74.1253033, 4.648399], [-74.1253253, 4.6483352]], [[-74.1253253, 4.6483352], [-74.1253602, 4.6482712]], [[-74.1253602, 4.6482712], [-74.1254011, 4.6482233]], [[-74.1254011, 4.6482233], [-74.1254534, 4.6481871]], [[-74.1254534, 4.6481871], [-74.1255071, 4.6481638]], [[-74.1255071, 4.6481638], [-74.1255756, 4.6481579]], [[-74.1255756, 4.6481579], [-74.1256054, 4.6481656]], [[-74.1256054, 4.6481656], [-74.1256426, 4.6481752]], [[-74.1256426, 4.6481752], [-74.12581, 4.6482613]]]}}, {"type": "Feature", "properties": {"highway": "trunk_link", "oneway": "yes", "lanes": "1", "maxspeed": null}, "geometry": {"type": "MultiLineString", "coordinates": [[[-74.1251499, 4.6474626], [-74.1253441, 4.6478469]], [[-74.1253441, 4.6478469], [-74.1253638, 4.6479119]], [[-74.1253638, 4.6479119], [-74.1253691, 4.6479295]], [[-74.1253691, 4.6479295], [-74.1253779, 4.6479959]], [[-74.1253779, 4.6479959], [-74.1253691, 4.6480521]], [[-74.1253691, 4.6480521], [-74.1253545, 4.6481201]], [[-74.1253545, 4.6481201], [-74.1252624, 4.6482786]], [[-74.1252624, 4.6482786], [-74.1252362, 4.6483354]], [[-74.1252362, 4.6483354], [-74.1252158, 4.6483923]], [[-74.1252158, 4.6483923], [-74.1252056, 4.6484457]], [[-74.1252056, 4.6484457], [-74.1252043, 4.6484859]], [[-74.1252043, 4.6484859], [-74.1252118, 4.6485204]], [[-74.1252118, 4.6485204], [-74.1252222, 4.6485504]], [[-74.1252222, 4.6485504], [-74.1252535, 4.6486052]], [[-74.1252535, 4.6486052], [-74.1253533, 4.6487379]], [[-74.1253533, 4.6487379], [-74.1257361, 4.6492468]], [[-74.1257361, 4.6492468], [-74.1257874, 4.6493118]], [[-74.1257874, 4.6493118], [-74.1258184, 4.649366]], [[-74.1258184, 4.649366], [-74.1258229, 4.649378]], [[-74.1258229, 4.649378], [-74.1258333, 4.6494059]], [[-74.1258333, 4.6494059], [-74.1258403, 4.64947]], [[-74.1258403, 4.64947], [-74.1258285, 4.6495506]], [[-74.1258285, 4.6495506], [-74.1257795, 4.6496714]]]}}, {"type": "Feature", "properties": {"highway": "trunk_link", "oneway": "yes", "lanes": "1", "maxspeed": null}, "geometry": {"type": "MultiLineString", "coordinates": [[[-74.125956, 4.6482625], [-74.1258802, 4.6480832]], [[-74.1258802, 4.6480832], [-74.1258683, 4.6480296]], [[-74.1258683, 4.6480296], [-74.1258712, 4.6479672]], [[-74.1258712, 4.6479672], [-74.1258834, 4.6479274]], [[-74.1258834, 4.6479274], [-74.1258985, 4.6478906]], [[-74.1258985, 4.6478906], [-74.1259436, 4.6478403]], [[-74.1259436, 4.6478403], [-74.125988, 4.6478151]], [[-74.125988, 4.6478151], [-74.1260417, 4.6477993]], [[-74.1260417, 4.6477993], [-74.1261338, 4.6477955]], [[-74.1261338, 4.6477955], [-74.1262077, 4.6478205]], [[-74.1262077, 4.6478205], [-74.1262576, 4.647861]], [[-74.1262576, 4.647861], [-74.1263407, 4.6479568]], [[-74.1263407, 4.6479568], [-74.1266561, 4.6483831]], [[-74.1266561, 4.6483831], [-74.1266936, 4.6484504]], [[-74.1266936, 4.6484504], [-74.1267249, 4.6485191]], [[-74.1267249, 4.6485191], [-74.1267347, 4.6485652]], [[-74.1267347, 4.6485652], [-74.1267309, 4.6486199]], [[-74.1267309, 4.6486199], [-74.1267134, 4.6486935]], [[-74.1267134, 4.6486935], [-74.1266874, 4.6487511]], [[-74.1266874, 4.6487511], [-74.1266436, 4.6488321]]]}}, {"type": "Feature", "properties": {"highway": "primary", "oneway": "yes", "lanes": "2", "maxspeed": null}, "geometry": {"type": "MultiLineString", "coordinates": [[[-74.1493231, 4.6311346], [-74.1492815, 4.6311181]], [[-74.1492815, 4.6311181], [-74.149221, 4.6310846]], [[-74.149221, 4.6310846], [-74.1491483, 4.6310311]], [[-74.1491483, 4.6310311], [-74.14895, 4.6308645]], [[-74.14895, 4.6308645], [-74.1488642, 4.6308036]], [[-74.1488642, 4.6308036], [-74.1487993, 4.6307673]], [[-74.1487993, 4.6307673], [-74.1487234, 4.6307341]], [[-74.1487234, 4.6307341], [-74.1486361, 4.6307028]], [[-74.1486361, 4.6307028], [-74.1485535, 4.6306827]], [[-74.1485535, 4.6306827], [-74.1484633, 4.6306664]], [[-74.1484633, 4.6306664], [-74.148382, 4.6306587]], [[-74.148382, 4.6306587], [-74.1482913, 4.6306585]], [[-74.1482913, 4.6306585], [-74.1482046, 4.6306656]], [[-74.1482046, 4.6306656], [-74.1481027, 4.6306877]], [[-74.1481027, 4.6306877], [-74.1480422, 4.6307061]], [[-74.1480422, 4.6307061], [-74.1479817, 4.6307321]], [[-74.1479817, 4.6307321], [-74.147743, 4.6308483]]]}}, {"type": "Feature", "properties": {"highway": "trunk", "oneway": "yes", "lanes": "3", "maxspeed": null}, "geometry": {"type": "MultiLineString", "coordinates": [[[-74.1372643, 4.6305906], [-74.1387904, 4.6307474]]]}}, {"type": "Feature", "properties": {"highway": "trunk", "oneway": "yes", "lanes": "3", "maxspeed": null}, "geometry": {"type": "MultiLineString", "coordinates": [[[-74.13882, 4.6304569], [-74.1372915, 4.6303071]]]}}, {"type": "Feature", "properties": {"highway": "trunk", "oneway": "yes", "lanes": "5", "maxspeed": null}, "geometry": {"type": "MultiLineString", "coordinates": [[[-74.128488, 4.6297273], [-74.1286449, 4.6297486]], [[-74.1286449, 4.6297486], [-74.1314689, 4.6301314]], [[-74.1314689, 4.6301314], [-74.1318622, 4.6301797]], [[-74.1318622, 4.6301797], [-74.133069, 4.6303041]]]}}, {"type": "Feature", "properties": {"highway": "trunk", "oneway": "yes", "lanes": "3", "maxspeed": null}, "geometry": {"type": "MultiLineString", "coordinates": [[[-74.1260388, 4.6291197], [-74.1254045, 4.6290738]]]}}, {"type": "Feature", "properties": {"highway": "trunk", "oneway": "yes", "lanes": "4", "maxspeed": null}, "geometry": {"type": "MultiLineString", "coordinates": [[[-74.1318661, 4.6296046], [-74.1313319, 4.6295542]], [[-74.1313319, 4.6295542], [-74.131059, 4.6295285]], [[-74.131059, 4.6295285], [-74.1303714, 4.6294731]], [[-74.1303714, 4.6294731], [-74.1289119, 4.6293548]], [[-74.1289119, 4.6293548], [-74.1278441, 4.6292789]], [[-74.1278441, 4.6292789], [-74.127275, 4.6292289]], [[-74.127275, 4.6292289], [-74.1263727, 4.6291475]], [[-74.1263727, 4.6291475], [-74.1262835, 4.6291406]]]}}, {"type": "Feature", "properties": {"highway": "trunk_link", "oneway": "yes", "lanes": "2", "maxspeed": null}, "geometry": {"type": "MultiLineString", "coordinates": [[[-74.1353649, 4.6305679], [-74.1355394, 4.6305941]], [[-74.1355394, 4.6305941], [-74.1357488, 4.6306142]], [[-74.1357488, 4.6306142], [-74.13618, 4.6306574]], [[-74.13618, 4.6306574], [-74.1363234, 4.6306732]], [[-74.1363234, 4.6306732], [-74.1363835, 4.630687]], [[-74.1363835, 4.630687], [-74.136436, 4.6307086]], [[-74.136436, 4.6307086], [-74.1364846, 4.6307471]], [[-74.1364846, 4.6307471], [-74.1365209, 4.6307855]], [[-74.1365209, 4.6307855], [-74.1365405, 4.6308207]], [[-74.1365405, 4.6308207], [-74.136557, 4.630862]], [[-74.136557, 4.630862], [-74.1365647, 4.6308995]], [[-74.1365647, 4.6308995], [-74.1365747, 4.6309478]], [[-74.1365747, 4.6309478], [-74.13659, 4.6310378]], [[-74.13659, 4.6310378], [-74.1366135, 4.6311289]], [[-74.1366135, 4.6311289], [-74.1366417, 4.631203]], [[-74.1366417, 4.631203], [-74.136669, 4.6312587]], [[-74.136669, 4.6312587], [-74.1367118, 4.6313143]], [[-74.1367118, 4.6313143], [-74.1367587, 4.6313648]], [[-74.1367587, 4.6313648], [-74.136818, 4.6314154]], [[-74.136818, 4.6314154], [-74.1368416, 4.631428]], [[-74.1368416, 4.631428], [-74.136878, 4.6314475]], [[-74.136878, 4.6314475], [-74.1369688, 4.6314781]], [[-74.1369688, 4.6314781], [-74.1370769, 4.6314923]], [[-74.1370769, 4.6314923], [-74.1372466, 4.6314988]], [[-74.1372466, 4.6314988], [-74.1373172, 4.6315126]], [[-74.1373172, 4.6315126], [-74.1373329, 4.6315163]], [[-74.1373329, 4.6315163], [-74.1373679, 4.6315246]], [[-74.1373679, 4.6315246], [-74.1374031, 4.6315525]], [[-74.1374031, 4.6315525], [-74.1374238, 4.631582]], [[-74.1374238, 4.631582], [-74.1374383, 4.6316116]], [[-74.1374383, 4.6316116], [-74.1374751, 4.6317046]]]}}, {"type": "Feature", "properties": {"highway": "trunk_link", "oneway": "yes", "lanes": "1", "maxspeed": null}, "geometry": {"type": "MultiLineString", "coordinates": [[[-74.1375422, 4.6310218], [-74.1374743, 4.6311767]], [[-74.1374743, 4.6311767], [-74.1374323, 4.6312425]], [[-74.1374323, 4.6312425], [-74.1373949, 4.6312914]], [[-74.1373949, 4.6312914], [-74.1373474, 4.6313274]], [[-74.1373474, 4.6313274], [-74.1373191, 4.6313488]], [[-74.1373191, 4.6313488], [-74.1372469, 4.631385]], [[-74.1372469, 4.631385], [-74.137167, 4.6314027]], [[-74.137167, 4.6314027], [-74.1371098, 4.6314039]], [[-74.1371098, 4.6314039], [-74.1370311, 4.6313929]], [[-74.1370311, 4.6313929], [-74.1369621, 4.6313685]], [[-74.1369621, 4.6313685], [-74.1368915, 4.6313304]], [[-74.1368915, 4.6313304], [-74.1368119, 4.6312576]], [[-74.1368119, 4.6312576], [-74.13676, 4.6311694]], [[-74.13676, 4.6311694], [-74.1367241, 4.6310882]], [[-74.1367241, 4.6310882], [-74.136672, 4.630963]], [[-74.136672, 4.630963], [-74.1366445, 4.6308408]], [[-74.1366445, 4.6308408], [-74.136641, 4.6307801]], [[-74.136641, 4.6307801], [-74.1366498, 4.6307193]], [[-74.1366498, 4.6307193], [-74.1366736, 4.6306709]], [[-74.1366736, 4.6306709], [-74.1367158, 4.6306195]], [[-74.1367158, 4.6306195], [-74.1368081, 4.6305437]]]}}, {"type": "Feature", "properties": {"highway": "trunk_link", "oneway": "yes", "lanes": "1", "maxspeed": null}, "geometry": {"type": "MultiLineString", "coordinates": [[[-74.1387904, 4.6307474], [-74.1388461, 4.6308027]], [[-74.1388461, 4.6308027], [-74.1388876, 4.6308553]], [[-74.1388876, 4.6308553], [-74.1389178, 4.6309331]], [[-74.1389178, 4.6309331], [-74.1389285, 4.630997]], [[-74.1389285, 4.630997], [-74.1389241, 4.6310727]], [[-74.1389241, 4.6310727], [-74.1388903, 4.6311447]], [[-74.1388903, 4.6311447], [-74.1388225, 4.6312282]], [[-74.1388225, 4.6312282], [-74.1387007, 4.6313451]], [[-74.1387007, 4.6313451], [-74.1385911, 4.6314435]], [[-74.1385911, 4.6314435], [-74.1385346, 4.6314821]], [[-74.1385346, 4.6314821], [-74.1384816, 4.6315066]], [[-74.1384816, 4.6315066], [-74.1384429, 4.6315203]], [[-74.1384429, 4.6315203], [-74.1383949, 4.6315293]], [[-74.1383949, 4.6315293], [-74.1383117, 4.6315309]], [[-74.1383117, 4.6315309], [-74.1382559, 4.6315216]], [[-74.1382559, 4.6315216], [-74.1381889, 4.6315012]], [[-74.1381889, 4.6315012], [-74.138117, 4.6314589]], [[-74.138117, 4.6314589], [-74.1380672, 4.6314189]], [[-74.1380672, 4.6314189], [-74.138037, 4.6313773]], [[-74.138037, 4.6313773], [-74.138001, 4.6313121]], [[-74.138001, 4.6313121], [-74.1379723, 4.6312255]], [[-74.1379723, 4.6312255], [-74.1379169, 4.6308914]]]}}, {"type": "Feature", "properties": {"highway": "trunk_link", "oneway": "yes", "lanes": "2", "maxspeed": null}, "geometry": {"type": "MultiLineString", "coordinates": [[[-74.1407614, 4.6305041], [-74.1400306, 4.630383]], [[-74.1400306, 4.630383], [-74.1396308, 4.6303316]], [[-74.1396308, 4.6303316], [-74.1394658, 4.6303133]], [[-74.1394658, 4.6303133], [-74.139345, 4.6302915]], [[-74.139345, 4.6302915], [-74.13926, 4.6302703]], [[-74.13926, 4.6302703], [-74.1391928, 4.630235]], [[-74.1391928, 4.630235], [-74.1391344, 4.6301892]], [[-74.1391344, 4.6301892], [-74.1390866, 4.6301353]], [[-74.1390866, 4.6301353], [-74.1390501, 4.6300776]], [[-74.1390501, 4.6300776], [-74.1387812, 4.6296328]], [[-74.1387812, 4.6296328], [-74.1387168, 4.6295479]], [[-74.1387168, 4.6295479], [-74.1386531, 4.6295017]], [[-74.1386531, 4.6295017], [-74.138578, 4.629467]], [[-74.138578, 4.629467], [-74.1385479, 4.6294571]], [[-74.1385479, 4.6294571], [-74.138478, 4.6294495]], [[-74.138478, 4.6294495], [-74.1383238, 4.629453]], [[-74.1383238, 4.629453], [-74.1382447, 4.6294436]], [[-74.1382447, 4.6294436], [-74.1381915, 4.6294248]], [[-74.1381915, 4.6294248], [-74.1381488, 4.6293982]], [[-74.1381488, 4.6293982], [-74.138113, 4.6293551]], [[-74.138113, 4.6293551], [-74.1380972, 4.6293193]], [[-74.1380972, 4.6293193], [-74.1380806, 4.6292345]]]}}, {"type": "Feature", "properties": {"highway": "trunk_link", "oneway": "yes", "lanes": "1", "maxspeed": null}, "geometry": {"type": "MultiLineString", "coordinates": [[[-74.1390087, 4.6301608], [-74.1390213, 4.6302001]], [[-74.1390213, 4.6302001], [-74.1390287, 4.6302513]], [[-74.1390287, 4.6302513], [-74.1390263, 4.6303155]], [[-74.1390263, 4.6303155], [-74.1390109, 4.6303653]], [[-74.1390109, 4.6303653], [-74.1389739, 4.6304006]], [[-74.1389739, 4.6304006], [-74.138923, 4.6304265]], [[-74.138923, 4.6304265], [-74.13882, 4.6304569]]]}}, {"type": "Feature", "properties": {"highway": "trunk_link", "oneway": "yes", "lanes": "1", "maxspeed": null}, "geometry": {"type": "MultiLineString", "coordinates": [[[-74.1367277, 4.6302519], [-74.1366067, 4.6301465]], [[-74.1366067, 4.6301465], [-74.1365716, 4.6300977]], [[-74.1365716, 4.6300977], [-74.1365488, 4.6300488]], [[-74.1365488, 4.6300488], [-74.1365385, 4.6300018]], [[-74.1365385, 4.6300018], [-74.1365343, 4.6299517]], [[-74.1365343, 4.6299517], [-74.136544, 4.6299015]], [[-74.136544, 4.6299015], [-74.1365598, 4.6298606]], [[-74.1365598, 4.6298606], [-74.1365968, 4.6298022]], [[-74.1365968, 4.6298022], [-74.1366445, 4.6297499]], [[-74.1366445, 4.6297499], [-74.1367262, 4.6296915]], [[-74.1367262, 4.6296915], [-74.1368718, 4.6296023]], [[-74.1368718, 4.6296023], [-74.1371728, 4.6294387]], [[-74.1371728, 4.6294387], [-74.1372793, 4.6293903]]]}}, {"type": "Feature", "properties": {"highway": "trunk_link", "oneway": "yes", "lanes": "2", "maxspeed": null}, "geometry": {"type": "MultiLineString", "coordinates": [[[-74.1377539, 4.6288276], [-74.1376688, 4.6290164]], [[-74.1376688, 4.6290164], [-74.1376399, 4.6290631]], [[-74.1376399, 4.6290631], [-74.1376278, 4.6290772]], [[-74.1376278, 4.6290772], [-74.1376064, 4.6291021]], [[-74.1376064, 4.6291021], [-74.1375586, 4.629145]], [[-74.1375586, 4.629145], [-74.1375124, 4.6291756]], [[-74.1375124, 4.6291756], [-74.1374253, 4.6292264]], [[-74.1374253, 4.6292264], [-74.1373687, 4.6292523]], [[-74.1373687, 4.6292523], [-74.1368879, 4.6294886]], [[-74.1368879, 4.6294886], [-74.1367563, 4.6295725]], [[-74.1367563, 4.6295725], [-74.136669, 4.6296326]], [[-74.136669, 4.6296326], [-74.13649, 4.6297651]], [[-74.13649, 4.6297651], [-74.1362934, 4.6298947]], [[-74.1362934, 4.6298947], [-74.136225, 4.6299322]], [[-74.136225, 4.6299322], [-74.1361838, 4.6299486]], [[-74.1361838, 4.6299486], [-74.1361365, 4.6299589]], [[-74.1361365, 4.6299589], [-74.1360939, 4.6299633]], [[-74.1360939, 4.6299633], [-74.1360359, 4.6299616]], [[-74.1360359, 4.6299616], [-74.1358773, 4.6299477]], [[-74.1358773, 4.6299477], [-74.1356941, 4.6299276]], [[-74.1356941, 4.6299276], [-74.1353544, 4.6298853]], [[-74.1353544, 4.6298853], [-74.135174, 4.6298705]], [[-74.135174, 4.6298705], [-74.1346487, 4.6298771]]]}}, {"type": "Feature", "properties": {"highway": "primary", "oneway": "yes", "lanes": "3", "maxspeed": "30"}, "geometry": {"type": "MultiLineString", "coordinates": [[[-74.1214436, 4.6030526], [-74.1215873, 4.6030505]], [[-74.1215873, 4.6030505], [-74.121713, 4.6030649]], [[-74.121713, 4.6030649], [-74.1217808, 4.6030727]], [[-74.1217808, 4.6030727], [-74.1219595, 4.6031248]], [[-74.1219595, 4.6031248], [-74.1221686, 4.6032479]], [[-74.1221686, 4.6032479], [-74.1224999, 4.6034761]]]}}, {"type": "Feature", "properties": {"highway": "trunk_link", "oneway": "yes", "lanes": "1", "maxspeed": "30"}, "geometry": {"type": "MultiLineString", "coordinates": [[[-74.1394938, 4.6192691], [-74.1395527, 4.6191404]], [[-74.1395527, 4.6191404], [-74.1396058, 4.6190714]], [[-74.1396058, 4.6190714], [-74.1396637, 4.6190175]], [[-74.1396637, 4.6190175], [-74.1397061, 4.6189873]], [[-74.1397061, 4.6189873], [-74.1397539, 4.6189603]], [[-74.1397539, 4.6189603], [-74.1398132, 4.6189355]], [[-74.1398132, 4.6189355], [-74.139896, 4.6189146]], [[-74.139896, 4.6189146], [-74.1399858, 4.6189079]], [[-74.1399858, 4.6189079], [-74.140587, 4.6190499]], [[-74.140587, 4.6190499], [-74.1409651, 4.6191293]], [[-74.1409651, 4.6191293], [-74.1413601, 4.6191437]]]}}, {"type": "Feature", "properties": {"highway": "trunk_link", "oneway": "yes", "lanes": "1", "maxspeed": null}, "geometry": {"type": "MultiLineString", "coordinates": [[[-74.1395392, 4.6177244], [-74.1393952, 4.6179801]], [[-74.1393952, 4.6179801], [-74.1393741, 4.6180165]], [[-74.1393741, 4.6180165], [-74.1393352, 4.6180835]], [[-74.1393352, 4.6180835], [-74.1392736, 4.6181771]], [[-74.1392736, 4.6181771], [-74.1392459, 4.6182148]], [[-74.1392459, 4.6182148], [-74.1392115, 4.618258]], [[-74.1392115, 4.618258], [-74.1391497, 4.618338]], [[-74.1391497, 4.618338], [-74.1391055, 4.6183952]], [[-74.1391055, 4.6183952], [-74.1390869, 4.6184147]], [[-74.1390869, 4.6184147], [-74.1390547, 4.6184486]], [[-74.1390547, 4.6184486], [-74.1390081, 4.6184853]], [[-74.1390081, 4.6184853], [-74.13897, 4.6185075]], [[-74.13897, 4.6185075], [-74.1389319, 4.6185173]], [[-74.1389319, 4.6185173], [-74.1388636, 4.6185177]], [[-74.1388636, 4.6185177], [-74.1387062, 4.6185036]], [[-74.1387062, 4.6185036], [-74.1384401, 4.618477]], [[-74.1384401, 4.618477], [-74.1384003, 4.6184661]], [[-74.1384003, 4.6184661], [-74.1383516, 4.6184515]], [[-74.1383516, 4.6184515], [-74.1382921, 4.6184228]], [[-74.1382921, 4.6184228], [-74.1382401, 4.6183763]], [[-74.1382401, 4.6183763], [-74.138197, 4.6183144]], [[-74.138197, 4.6183144], [-74.1381684, 4.6182536]], [[-74.1381684, 4.6182536], [-74.1381535, 4.6181818]], [[-74.1381535, 4.6181818], [-74.138155, 4.6181332]], [[-74.138155, 4.6181332], [-74.1381674, 4.6180862]], [[-74.1381674, 4.6180862], [-74.1382102, 4.6180175]], [[-74.1382102, 4.6180175], [-74.1382531, 4.6179808]], [[-74.1382531, 4.6179808], [-74.1382847, 4.6179642]], [[-74.1382847, 4.6179642], [-74.1383193, 4.6179538]], [[-74.1383193, 4.6179538], [-74.1383915, 4.6179488]], [[-74.1383915, 4.6179488], [-74.1384458, 4.6179626]], [[-74.1384458, 4.6179626], [-74.1384879, 4.6179768]], [[-74.1384879, 4.6179768], [-74.1385482, 4.6180028]], [[-74.1385482, 4.6180028], [-74.1386139, 4.6180498]]]}}, {"type": "Feature", "properties": {"highway": "trunk_link", "oneway": "yes", "lanes": "1", "maxspeed": null}, "geometry": {"type": "MultiLineString", "coordinates": [[[-74.1383104, 4.6176368], [-74.1382676, 4.6177098]], [[-74.1382676, 4.6177098], [-74.1382253, 4.6177976]], [[-74.1382253, 4.6177976], [-74.1381849, 4.6178885]], [[-74.1381849, 4.6178885], [-74.1381464, 4.6179566]], [[-74.1381464, 4.6179566], [-74.1381132, 4.6180218]], [[-74.1381132, 4.6180218], [-74.1380895, 4.6181225]], [[-74.1380895, 4.6181225], [-74.1380847, 4.61819]], [[-74.1380847, 4.61819], [-74.1380954, 4.6182508]], [[-74.1380954, 4.6182508], [-74.1381109, 4.6183073]], [[-74.1381109, 4.6183073], [-74.1381337, 4.6183582]], [[-74.1381337, 4.6183582], [-74.1381843, 4.618441]], [[-74.1381843, 4.618441], [-74.138232, 4.6184801]], [[-74.138232, 4.6184801], [-74.1382891, 4.6185131]], [[-74.1382891, 4.6185131], [-74.1383967, 4.6185441]], [[-74.1383967, 4.6185441], [-74.1387046, 4.6185695]], [[-74.1387046, 4.6185695], [-74.1388366, 4.6185902]], [[-74.1388366, 4.6185902], [-74.1389018, 4.6186061]], [[-74.1389018, 4.6186061], [-74.1389553, 4.6186362]], [[-74.1389553, 4.6186362], [-74.139037, 4.6186958]], [[-74.139037, 4.6186958], [-74.139077, 4.6187426]], [[-74.139077, 4.6187426], [-74.1391123, 4.6187988]], [[-74.1391123, 4.6187988], [-74.1391393, 4.6188781]], [[-74.1391393, 4.6188781], [-74.13915, 4.6189307]], [[-74.13915, 4.6189307], [-74.1391603, 4.6189816]], [[-74.1391603, 4.6189816], [-74.1391671, 4.6190872]], [[-74.1391671, 4.6190872], [-74.1391709, 4.6191637]]]}}, {"type": "Feature", "properties": {"highway": "trunk_link", "oneway": "yes", "lanes": "1", "maxspeed": null}, "geometry": {"type": "MultiLineString", "coordinates": [[[-74.1397482, 4.6194389], [-74.1399296, 4.6196658]], [[-74.1399296, 4.6196658], [-74.1399848, 4.6197248]], [[-74.1399848, 4.6197248], [-74.140033, 4.6197901]], [[-74.140033, 4.6197901], [-74.1400592, 4.6198378]], [[-74.1400592, 4.6198378], [-74.1400783, 4.6198905]], [[-74.1400783, 4.6198905], [-74.1400919, 4.6199515]], [[-74.1400919, 4.6199515], [-74.140097, 4.6200479]], [[-74.140097, 4.6200479], [-74.1400702, 4.6201267]], [[-74.1400702, 4.6201267], [-74.1400288, 4.6201999]], [[-74.1400288, 4.6201999], [-74.1399608, 4.6202518]], [[-74.1399608, 4.6202518], [-74.1398884, 4.6202846]], [[-74.1398884, 4.6202846], [-74.1398106, 4.6202962]], [[-74.1398106, 4.6202962], [-74.1397169, 4.6202863]], [[-74.1397169, 4.6202863], [-74.1396408, 4.6202676]], [[-74.1396408, 4.6202676], [-74.1395729, 4.6202364]], [[-74.1395729, 4.6202364], [-74.1395121, 4.6201981]], [[-74.1395121, 4.6201981], [-74.1394518, 4.6201357]], [[-74.1394518, 4.6201357], [-74.1394198, 4.62009]], [[-74.1394198, 4.62009], [-74.1394097, 4.6200678]], [[-74.1394097, 4.6200678], [-74.1393817, 4.6200034]], [[-74.1393817, 4.6200034], [-74.1393666, 4.6199387]], [[-74.1393666, 4.6199387], [-74.139342, 4.6197905]]]}}, {"type": "Feature", "properties": {"highway": "primary", "oneway": "yes", "lanes": "3", "maxspeed": null}, "geometry": {"type": "MultiLineString", "coordinates": [[[-74.1389146, 4.6184205], [-74.1390125, 4.6185038]], [[-74.1390125, 4.6185038], [-74.1390797, 4.6185629]], [[-74.1390797, 4.6185629], [-74.1391438, 4.6186062]], [[-74.1391438, 4.6186062], [-74.1392256, 4.6186531]], [[-74.1392256, 4.6186531], [-74.1392834, 4.6186829]], [[-74.1392834, 4.6186829], [-74.1393229, 4.6186998]], [[-74.1393229, 4.6186998], [-74.13936, 4.6187131]], [[-74.13936, 4.6187131], [-74.1394617, 4.6187466]], [[-74.1394617, 4.6187466], [-74.1395687, 4.6187708]], [[-74.1395687, 4.6187708], [-74.1396711, 4.618788]], [[-74.1396711, 4.618788], [-74.140761, 4.6190285]]]}}, {"type": "Feature", "properties": {"highway": "primary", "oneway": "yes", "lanes": "3", "maxspeed": null}, "geometry": {"type": "MultiLineString", "coordinates": [[[-74.1407719, 4.618889], [-74.1398229, 4.6186851]], [[-74.1398229, 4.6186851], [-74.1396879, 4.6186522]], [[-74.1396879, 4.6186522], [-74.1396001, 4.6186286]], [[-74.1396001, 4.6186286], [-74.1395311, 4.6186036]], [[-74.1395311, 4.6186036], [-74.1394287, 4.6185588]], [[-74.1394287, 4.6185588], [-74.1393611, 4.6185239]], [[-74.1393611, 4.6185239], [-74.1392918, 4.6184769]], [[-74.1392918, 4.6184769], [-74.1392305, 4.6184317]], [[-74.1392305, 4.6184317], [-74.1391585, 4.6183717]], [[-74.1391585, 4.6183717], [-74.1391142, 4.618328]], [[-74.1391142, 4.618328], [-74.1389241, 4.6181046]]]}}, {"type": "Feature", "properties": {"highway": "trunk", "oneway": "yes", "lanes": "2", "maxspeed": "50"}, "geometry": {"type": "MultiLineString", "coordinates": [[[-74.1448384, 4.5991013], [-74.1448871, 4.5989723]], [[-74.1448871, 4.5989723], [-74.1449345, 4.5988304]], [[-74.1449345, 4.5988304], [-74.1450257, 4.5985264]], [[-74.1450257, 4.5985264], [-74.1451043, 4.5982309]], [[-74.1451043, 4.5982309], [-74.1452248, 4.5977239]], [[-74.1452248, 4.5977239], [-74.1452735, 4.5975152]], [[-74.1452735, 4.5975152], [-74.145323, 4.5972528]]]}}, {"type": "Feature", "properties": {"highway": "trunk", "oneway": "yes", "lanes": "2", "maxspeed": "30"}, "geometry": {"type": "MultiLineString", "coordinates": [[[-74.1452213, 4.596622], [-74.145182, 4.5971261]], [[-74.145182, 4.5971261], [-74.1451717, 4.5972234]], [[-74.1451717, 4.5972234], [-74.1451363, 4.5974164]], [[-74.1451363, 4.5974164], [-74.145096, 4.5975957]], [[-74.145096, 4.5975957], [-74.1449982, 4.5979999]], [[-74.1449982, 4.5979999], [-74.1448801, 4.5984364]], [[-74.1448801, 4.5984364], [-74.1447552, 4.5988718]], [[-74.1447552, 4.5988718], [-74.1447095, 4.5990034]]]}}]}