{"type": "FeatureCollection", "features": [{"type": "Feature", "properties": {"observ": "Valores de capacidad de buses en proceso de actualización", "longitud": -74.07457455, "latitud": 4.66635264, "objectid": 624, "num_est": "07103", "nom_est": "AV. Chile", "id_trazado": "TZ008", "long_est": 173.64, "ancho_est": 4.0, "area_est": 694.56, "esta_oper": 1, "eta_oper": 1, "tipo_esta": 4, "ub_est": "KR 30 - CL 72", "num_acc": 2, "acc_esp": 0, "acc_depr": 0, "acc_puent": 2, "cod_nodo": 7103, "cap_biart": 120, "num_vag": 3, "cap_art": 224, "globalid": "{88CDEE8D-FC67-43E6-B91B-1385BB3BD488}", "created_user": null, "created_date": null, "last_edited_user": null, "last_edited_date": null}, "geometry": {"type": "Point", "coordinates": [-74.07457455288298, 4.666352641436107]}}, {"type": "Feature", "properties": {"observ": "Valores de capacidad de buses en proceso de actualización", "longitud": -74.09904645, "latitud": 4.64687639, "objectid": 625, "num_est": "06103", "nom_est": "CAN", "id_trazado": "TZ016", "long_est": 96.48, "ancho_est": 3.0, "area_est": 289.44, "esta_oper": 1, "eta_oper": 1, "tipo_esta": 4, "ub_est": "KR 60", "num_acc": 1, "acc_esp": 0, "acc_depr": 0, "acc_puent": 1, "cod_nodo": 6103, "cap_biart": 120, "num_vag": 2, "cap_art": 140, "globalid": "{D7AC3687-AAC2-4153-801B-6DB705329D88}", "created_user": null, "created_date": null, "last_edited_user": null, "last_edited_date": null}, "geometry": {"type": "Point", "coordinates": [-74.09904645134877, 4.646876393808474]}}, {"type": "Feature", "properties": {"observ": "Valores de capacidad de buses en proceso de actualización", "longitud": -74.07871009, "latitud": 4.64539756, "objectid": 626, "num_est": "07106", "nom_est": "Campín - UAN", "id_trazado": "TZ008", "long_est": 122.82, "ancho_est": 4.0, "area_est": 491.28, "esta_oper": 1, "eta_oper": 1, "tipo_esta": 4, "ub_est": "KR 30 - CL 53", "num_acc": 2, "acc_esp": 0, "acc_depr": 0, "acc_puent": 2, "cod_nodo": 7106, "cap_biart": 120, "num_vag": 2, "cap_art": 152, "globalid": "{992C8526-1970-4933-9EB9-826D966F6999}", "created_user": null, "created_date": null, "last_edited_user": null, "last_edited_date": null}, "geometry": {"type": "Point", "coordinates": [-74.07871009145556, 4.645397563881436]}}, {"type": "Feature", "properties": {"observ": "Valores de capacidad de buses en proceso de actualización", "longitud": -74.07150007, "latitud": 4.61089909, "objectid": 627, "num_est": "10008", "nom_est": "San Diego", "id_trazado": "TZ018", "long_est": 348.09, "ancho_est": 4.0, "area_est": 1392.36, "esta_oper": 1, "eta_oper": 1, "tipo_esta": 4, "ub_est": "KR 10 - CL 23", "num_acc": 2, "acc_esp": 1, "acc_depr": 1, "acc_puent": 0, "cod_nodo": 10008, "cap_biart": 144, "num_vag": 2, "cap_art": 144, "globalid": "{667C3BFD-2FBE-40E7-AC18-8D327C4F17DF}", "created_user": null, "created_date": null, "last_edited_user": null, "last_edited_date": null}, "geometry": {"type": "Point", "coordinates": [-74.07150007434937, 4.610899086160519]}}, {"type": "Feature", "properties": {"observ": "Valores de capacidad de buses en proceso de actualización", "longitud": -74.09601773, "latitud": 4.69915096, "objectid": 628, "num_est": "04100", "nom_est": "Granja - Kr 77", "id_trazado": "TZ005", "long_est": 385.0, "ancho_est": 4.0, "area_est": 1540.0, "esta_oper": 1, "eta_oper": 1, "tipo_esta": 2, "ub_est": "KR 77 Bis", "num_acc": 2, "acc_esp": 1, "acc_depr": 0, "acc_puent": 1, "cod_nodo": 4100, "cap_biart": 144, "num_vag": 4, "cap_art": 248, "globalid": "{5BB6ECCC-FCBC-474C-8399-84E490AC3502}", "created_user": null, "created_date": null, "last_edited_user": null, "last_edited_date": null}, "geometry": {"type": "Point", "coordinates": [-74.09601773277603, 4.699150963155722]}}, {"type": "Feature", "properties": {"observ": "Valores de capacidad de buses en proceso de actualización", "longitud": -74.09386595000001, "latitud": 4.61168378, "objectid": 629, "num_est": "07111", "nom_est": "Ricaurte - NQS", "id_trazado": "TZ008", "long_est": 187.96, "ancho_est": 5.3, "area_est": 996.188, "esta_oper": 1, "eta_oper": 1, "tipo_esta": 3, "ub_est": "KR 30 - CL 10", "num_acc": 2, "acc_esp": 0, "acc_depr": 1, "acc_puent": 1, "cod_nodo": 7111, "cap_biart": 168, "num_vag": 3, "cap_art": 224, "globalid": "{8FC1BA98-09F5-478D-B152-48EB7A49A72E}", "created_user": null, "created_date": null, "last_edited_user": null, "last_edited_date": null}, "geometry": {"type": "Point", "coordinates": [-74.09386594942337, 4.611683784449027]}}, {"type": "Feature", "properties": {"observ": "Valores de capacidad de buses en proceso de actualización", "longitud": -74.10873932, "latitud": 4.70672525, "objectid": 630, "num_est": "04001", "nom_est": "Quirigua", "id_trazado": "TZ005", "long_est": 45.75, "ancho_est": 4.0, "area_est": 183.0, "esta_oper": 1, "eta_oper": 1, "tipo_esta": 4, "ub_est": "KR 94", "num_acc": 1, "acc_esp": 0, "acc_depr": 0, "acc_puent": 1, "cod_nodo": 4001, "cap_biart": 72, "num_vag": 1, "cap_art": 80, "globalid": "{0DBE9B89-0FC6-4373-9E62-1C9AA2EE2D5B}", "created_user": null, "created_date": null, "last_edited_user": null, "last_edited_date": null}, "geometry": {"type": "Point", "coordinates": [-74.10873932323864, 4.706725245152247]}}, {"type": "Feature", "properties": {"observ": "Valores de capacidad de buses en proceso de actualización", "longitud": -74.06444284000001, "latitud": 4.68696834, "objectid": 631, "num_est": "03011", "nom_est": "Suba - Calle 100", "id_trazado": "TZ003", "long_est": 89.39, "ancho_est": 4.0, "area_est": 357.56, "esta_oper": 1, "eta_oper": 1, "tipo_esta": 4, "ub_est": "AV Suba - CL 100", "num_acc": 1, "acc_esp": 1, "acc_depr": 0, "acc_puent": 0, "cod_nodo": 3011, "cap_biart": 144, "num_vag": 2, "cap_art": 160, "globalid": "{022C923E-4BDF-4C7E-84D1-8C56488B9B3A}", "created_user": null, "created_date": null, "last_edited_user": "editorInfraSTS", "last_edited_date": "2026-06-25T15:52:01Z"}, "geometry": {"type": "Point", "coordinates": [-74.06430481905278, 4.686664075105651]}}, {"type": "Feature", "properties": {"observ": "Valores de capacidad de buses en proceso de actualización", "longitud": -74.07130491999999, "latitud": 4.67015101, "objectid": 632, "num_est": "07102", "nom_est": "Calle 75 - Zona M", "id_trazado": "TZ008", "long_est": 115.81, "ancho_est": 4.0, "area_est": 463.24, "esta_oper": 1, "eta_oper": 1, "tipo_esta": 4, "ub_est": "KR 30 - CL 75A", "num_acc": 1, "acc_esp": 0, "acc_depr": 0, "acc_puent": 1, "cod_nodo": 7102, "cap_biart": 120, "num_vag": 2, "cap_art": 152, "globalid": "{9DEDF7C6-6E14-49C4-9F40-C2FEFA46DC97}", "created_user": null, "created_date": null, "last_edited_user": null, "last_edited_date": null}, "geometry": {"type": "Point", "coordinates": [-74.07130491506688, 4.670151012299509]}}, {"type": "Feature", "properties": {"observ": "Valores de capacidad de buses en proceso de actualización", "longitud": -74.08713194, "latitud": 4.69393268, "objectid": 633, "num_est": "04102", "nom_est": "AV. Boyacá", "id_trazado": "TZ005", "long_est": 168.15, "ancho_est": 4.0, "area_est": 672.6, "esta_oper": 1, "eta_oper": 1, "tipo_esta": 4, "ub_est": "TV 69 Bis", "num_acc": 1, "acc_esp": 0, "acc_depr": 0, "acc_puent": 1, "cod_nodo": 4102, "cap_biart": 144, "num_vag": 2, "cap_art": 160, "globalid": "{F8FF211B-E374-411B-9560-47076FCA6CA6}", "created_user": null, "created_date": null, "last_edited_user": "editorInfraSTS", "last_edited_date": "2026-06-25T15:47:17Z"}, "geometry": {"type": "Point", "coordinates": [-74.08675371760854, 4.693553929576481]}}, {"type": "Feature", "properties": {"observ": "Valores de capacidad de buses en proceso de actualización", "longitud": -74.12007924000001, "latitud": 4.57579415, "objectid": 634, "num_est": "09100", "nom_est": "Calle 40 Sur", "id_trazado": "TZ012", "long_est": 179.92, "ancho_est": 4.0, "area_est": 719.68, "esta_oper": 1, "eta_oper": 1, "tipo_esta": 2, "ub_est": "CL 38 Sur - CL 40 Sur", "num_acc": 2, "acc_esp": 2, "acc_depr": 0, "acc_puent": 0, "cod_nodo": 9100, "cap_biart": 168, "num_vag": 3, "cap_art": 224, "globalid": "{E51B4CD7-37E8-426A-BD1A-77F3CA508E05}", "created_user": null, "created_date": null, "last_edited_user": null, "last_edited_date": null}, "geometry": {"type": "Point", "coordinates": [-74.12007924002512, 4.575794151709622]}}, {"type": "Feature", "properties": {"observ": "Valores de capacidad de buses en proceso de actualización", "longitud": -74.13422457, "latitud": 4.6301178, "objectid": 635, "num_est": "05102", "nom_est": "AV. Américas - AV. Boyacá", "id_trazado": "TZ009", "long_est": 115.715, "ancho_est": 3.0, "area_est": 347.145, "esta_oper": 1, "eta_oper": 1, "tipo_esta": 4, "ub_est": "AV Americas - KR 71", "num_acc": 1, "acc_esp": 0, "acc_depr": 0, "acc_puent": 1, "cod_nodo": 5102, "cap_biart": 120, "num_vag": 2, "cap_art": 152, "globalid": "{C635CA0E-E31A-43A4-8E97-328E02869404}", "created_user": null, "created_date": null, "last_edited_user": null, "last_edited_date": null}, "geometry": {"type": "Point", "coordinates": [-74.13422457070207, 4.630117798427176]}}, {"type": "Feature", "properties": {"observ": "Valores de capacidad de buses en proceso de actualización", "longitud": -74.13016385, "latitud": 4.62967723, "objectid": 636, "num_est": "05103", "nom_est": "Marsella", "id_trazado": "TZ009", "long_est": 173.715, "ancho_est": 3.0, "area_est": 521.145, "esta_oper": 1, "eta_oper": 1, "tipo_esta": 4, "ub_est": "AV Americas - KR 69C", "num_acc": 1, "acc_esp": 0, "acc_depr": 0, "acc_puent": 1, "cod_nodo": 5103, "cap_biart": 120, "num_vag": 3, "cap_art": 200, "globalid": "{0A92923C-6E4D-4A63-B02C-EFFD93D625A2}", "created_user": null, "created_date": null, "last_edited_user": null, "last_edited_date": null}, "geometry": {"type": "Point", "coordinates": [-74.13016384632475, 4.629677230521839]}}, {"type": "Feature", "properties": {"observ": "Valores de capacidad de buses en proceso de actualización", "longitud": -74.0723072, "latitud": 4.71200123, "objectid": 637, "num_est": "03006", "nom_est": "Niza - Calle 127", "id_trazado": "TZ003", "long_est": 93.56, "ancho_est": 4.0, "area_est": 374.24, "esta_oper": 1, "eta_oper": 1, "tipo_esta": 4, "ub_est": "AV Suba - CL 127", "num_acc": 2, "acc_esp": 2, "acc_depr": 0, "acc_puent": 0, "cod_nodo": 3006, "cap_biart": 72, "num_vag": 2, "cap_art": 128, "globalid": "{B9E9D4D2-B0A5-4D76-AD3F-BF9CC7E06A53}", "created_user": null, "created_date": null, "last_edited_user": null, "last_edited_date": null}, "geometry": {"type": "Point", "coordinates": [-74.07230719784444, 4.712001231323956]}}, {"type": "Feature", "properties": {"observ": "Valores de capacidad de buses en proceso de actualización", "longitud": -74.09120046, "latitud": 4.74265433, "objectid": 638, "num_est": "03001", "nom_est": "La Campiña", "id_trazado": "TZ003", "long_est": 89.31, "ancho_est": 4.0, "area_est": 357.24, "esta_oper": 1, "eta_oper": 1, "tipo_esta": 4, "ub_est": "AV Suba - KR 98A", "num_acc": 1, "acc_esp": 1, "acc_depr": 0, "acc_puent": 0, "cod_nodo": 3001, "cap_biart": 144, "num_vag": 3, "cap_art": 208, "globalid": "{B7B2885F-F715-4588-9D42-7AEE4261FDA7}", "created_user": null, "created_date": null, "last_edited_user": "editorInfraSTS", "last_edited_date": "2026-06-25T15:53:49Z"}, "geometry": {"type": "Point", "coordinates": [-74.0915060498986, 4.742916929058509]}}, {"type": "Feature", "properties": {"observ": "Valores de capacidad de buses en proceso de actualización", "longitud": -74.15206784, "latitud": 4.63419465, "objectid": 639, "num_est": "05005", "nom_est": "Transversal 86", "id_trazado": "TZ009", "long_est": 115.71, "ancho_est": 3.0, "area_est": 347.13, "esta_oper": 1, "eta_oper": 1, "tipo_esta": 4, "ub_est": "AV Americas - TV 86", "num_acc": 1, "acc_esp": 0, "acc_depr": 0, "acc_puent": 1, "cod_nodo": 5005, "cap_biart": 96, "num_vag": 2, "cap_art": 144, "globalid": "{9CAA719F-5ECC-4668-BAD9-3CBE2C54262C}", "created_user": null, "created_date": null, "last_edited_user": null, "last_edited_date": null}, "geometry": {"type": "Point", "coordinates": [-74.15206783620962, 4.634194653572966]}}, {"type": "Feature", "properties": {"observ": "Valores de capacidad de buses en proceso de actualización", "longitud": -74.08970085, "latitud": 4.63430649, "objectid": 640, "num_est": "06106", "nom_est": "Corferias", "id_trazado": "TZ016", "long_est": 106.07, "ancho_est": 4.0, "area_est": 424.28, "esta_oper": 1, "eta_oper": 1, "tipo_esta": 4, "ub_est": "KR 43", "num_acc": 1, "acc_esp": 1, "acc_depr": 0, "acc_puent": 0, "cod_nodo": 6106, "cap_biart": 120, "num_vag": 2, "cap_art": 132, "globalid": "{08B982AB-D3FA-4832-A51B-977A425F62B6}", "created_user": null, "created_date": null, "last_edited_user": "editorInfraSTS", "last_edited_date": "2026-06-25T15:50:23Z"}, "geometry": {"type": "Point", "coordinates": [-74.08994044210418, 4.634395531732532]}}, {"type": "Feature", "properties": {"observ": "Valores de capacidad de buses en proceso de actualización", "longitud": -74.09493313, "latitud": 4.60417101, "objectid": 641, "num_est": "07201", "nom_est": "Guatoque - Veraguas", "id_trazado": "TZ007", "long_est": 103.8, "ancho_est": 4.0, "area_est": 415.2, "esta_oper": 1, "eta_oper": 1, "tipo_esta": 4, "ub_est": "KR 27", "num_acc": 1, "acc_esp": 1, "acc_depr": 0, "acc_puent": 0, "cod_nodo": 7201, "cap_biart": 108, "num_vag": 2, "cap_art": 132, "globalid": "{08CAFCD0-4C31-4887-BB5D-54547C852B95}", "created_user": null, "created_date": null, "last_edited_user": "editorInfraSTS", "last_edited_date": "2026-06-25T15:38:29Z"}, "geometry": {"type": "Point", "coordinates": [-74.0947495897, 4.604034291395541]}}, {"type": "Feature", "properties": {"observ": "Valores de capacidad de buses en proceso de actualización", "longitud": -74.09394954000001, "latitud": 4.61613616, "objectid": 642, "num_est": "12002", "nom_est": "CDS - Carrera 32", "id_trazado": "TZ009", "long_est": 96.43, "ancho_est": 4.0, "area_est": 385.72, "esta_oper": 1, "eta_oper": 1, "tipo_esta": 4, "ub_est": "AV Americas - KR 32", "num_acc": 2, "acc_esp": 2, "acc_depr": 0, "acc_puent": 0, "cod_nodo": 12002, "cap_biart": 48, "num_vag": 2, "cap_art": 120, "globalid": "{598F45A6-20BC-49D5-9AFA-FDA33E286C0F}", "created_user": null, "created_date": null, "last_edited_user": null, "last_edited_date": null}, "geometry": {"type": "Point", "coordinates": [-74.09394954026446, 4.616136161567741]}}, {"type": "Feature", "properties": {"observ": "Valores de capacidad de buses en proceso de actualización", "longitud": -74.08352723, "latitud": 4.63087543, "objectid": 643, "num_est": "06107", "nom_est": "Ciudad Universitaria - Lotería de Bogotá", "id_trazado": "TZ016", "long_est": 130.67, "ancho_est": 4.0, "area_est": 522.68, "esta_oper": 1, "eta_oper": 1, "tipo_esta": 4, "ub_est": "KR 34", "num_acc": 2, "acc_esp": 1, "acc_depr": 0, "acc_puent": 1, "cod_nodo": 6107, "cap_biart": 120, "num_vag": 2, "cap_art": 140, "globalid": "{5BA38104-1E28-430E-975D-0B2A26C91386}", "created_user": null, "created_date": null, "last_edited_user": null, "last_edited_date": null}, "geometry": {"type": "Point", "coordinates": [-74.08352723499065, 4.630875429616791]}}, {"type": "Feature", "properties": {"observ": "Valores de capacidad de buses en proceso de actualización", "longitud": -74.07932618000001, "latitud": 4.63712105, "objectid": 644, "num_est": "07107", "nom_est": "Universidad Nacional", "id_trazado": "TZ008", "long_est": 188.03, "ancho_est": 4.43333333, "area_est": 833.59966667, "esta_oper": 1, "eta_oper": 1, "tipo_esta": 4, "ub_est": "KR 30 - CL 45", "num_acc": 2, "acc_esp": 0, "acc_depr": 0, "acc_puent": 2, "cod_nodo": 7107, "cap_biart": 180, "num_vag": 3, "cap_art": 232, "globalid": "{259767FC-4DE6-4B34-9971-D97CB3DAF813}", "created_user": null, "created_date": null, "last_edited_user": null, "last_edited_date": null}, "geometry": {"type": "Point", "coordinates": [-74.07932617980647, 4.63712104779828]}}, {"type": "Feature", "properties": {"observ": "Valores de capacidad de buses en proceso de actualización", "longitud": -74.108772, "latitud": 4.66194444, "objectid": 645, "num_est": "06100", "nom_est": "Avenida Rojas - UNISALESIANA", "id_trazado": "TZ016", "long_est": 177.17, "ancho_est": 3.0, "area_est": 531.51, "esta_oper": 1, "eta_oper": 1, "tipo_esta": 4, "ub_est": "CL 26 - KR 69 D", "num_acc": 1, "acc_esp": 0, "acc_depr": 0, "acc_puent": 1, "cod_nodo": 6100, "cap_biart": 120, "num_vag": 3, "cap_art": 200, "globalid": "{A0F3EA8E-C638-4AD7-8B63-19A8864839FB}", "created_user": null, "created_date": null, "last_edited_user": null, "last_edited_date": null}, "geometry": {"type": "Point", "coordinates": [-74.10877199870127, 4.661944439127925]}}, {"type": "Feature", "properties": {"observ": "Valores de capacidad de buses en proceso de actualización", "longitud": -74.08383625, "latitud": 4.59813501, "objectid": 646, "num_est": "09109", "nom_est": "Tercer Milenio", "id_trazado": "TZ001", "long_est": 184.0, "ancho_est": 3.5, "area_est": 644.0, "esta_oper": 1, "eta_oper": 3, "tipo_esta": 4, "ub_est": "CL 8 - CL 6", "num_acc": 2, "acc_esp": 2, "acc_depr": 0, "acc_puent": 0, "cod_nodo": 9109, "cap_biart": 120, "num_vag": 3, "cap_art": 200, "globalid": "{31D21176-1221-41E2-A9F2-17AEBB9B8EFB}", "created_user": null, "created_date": null, "last_edited_user": null, "last_edited_date": null}, "geometry": {"type": "Point", "coordinates": [-74.08383625075113, 4.598135008352739]}}, {"type": "Feature", "properties": {"observ": "Valores de capacidad de buses en proceso de actualización", "longitud": -74.08028966, "latitud": 4.62598737, "objectid": 647, "num_est": "06108", "nom_est": "Concejo de Bogotá", "id_trazado": "TZ016", "long_est": 122.88, "ancho_est": 4.0, "area_est": 491.52, "esta_oper": 1, "eta_oper": 1, "tipo_esta": 4, "ub_est": "CL 38", "num_acc": 1, "acc_esp": 1, "acc_depr": 0, "acc_puent": 0, "cod_nodo": 6108, "cap_biart": 120, "num_vag": 2, "cap_art": 140, "globalid": "{3A6E594B-CC87-4005-BEBD-7C9EAE6BC2EA}", "created_user": null, "created_date": null, "last_edited_user": null, "last_edited_date": null}, "geometry": {"type": "Point", "coordinates": [-74.08028965895312, 4.625987365683597]}}, {"type": "Feature", "properties": {"observ": "Valores de capacidad de buses en proceso de actualización", "longitud": -74.12375508, "latitud": 4.59380944, "objectid": 648, "num_est": "07007", "nom_est": "Cl38A sur - CENTRO MAYOR", "id_trazado": "TZ010", "long_est": 153.95, "ancho_est": 4.0, "area_est": 615.8, "esta_oper": 1, "eta_oper": 1, "tipo_esta": 4, "ub_est": "Autosur - KR 39A", "num_acc": 1, "acc_esp": 0, "acc_depr": 0, "acc_puent": 1, "cod_nodo": 7007, "cap_biart": 72, "num_vag": 2, "cap_art": 140, "globalid": "{2290C749-E58E-4AAC-8A0B-0C9127ED60AE}", "created_user": null, "created_date": null, "last_edited_user": "editorTroncal", "last_edited_date": "2026-06-05T19:31:30Z"}, "geometry": {"type": "Point", "coordinates": [-74.123755076579, 4.593809438726154]}}, {"type": "Feature", "properties": {"observ": "Valores de capacidad de buses en proceso de actualización", "longitud": -74.07768646000001, "latitud": 4.65729528, "objectid": 649, "num_est": "07104", "nom_est": "7 de Agosto", "id_trazado": "TZ008", "long_est": 123.23, "ancho_est": 4.0, "area_est": 492.92, "esta_oper": 1, "eta_oper": 1, "tipo_esta": 4, "ub_est": "KR 30 - CL 63", "num_acc": 1, "acc_esp": 0, "acc_depr": 0, "acc_puent": 1, "cod_nodo": 7104, "cap_biart": 120, "num_vag": 2, "cap_art": 140, "globalid": "{93BA0224-1276-4F2F-A308-DD35C17075EA}", "created_user": null, "created_date": null, "last_edited_user": null, "last_edited_date": null}, "geometry": {"type": "Point", "coordinates": [-74.07768645941138, 4.657295279916713]}}, {"type": "Feature", "properties": {"observ": "Valores de capacidad de buses en proceso de actualización", "longitud": -74.08076895999999, "latitud": 4.68610088, "objectid": 650, "num_est": "04104", "nom_est": "AV. 68", "id_trazado": "TZ005", "long_est": 144.0, "ancho_est": 4.0, "area_est": 576.0, "esta_oper": 1, "eta_oper": 1, "tipo_esta": 4, "ub_est": "KR 68D", "num_acc": 1, "acc_esp": 0, "acc_depr": 0, "acc_puent": 1, "cod_nodo": 4104, "cap_biart": 144, "num_vag": 2, "cap_art": 152, "globalid": "{4EE92D50-A4EF-4F07-B528-F45164CC5EDF}", "created_user": null, "created_date": null, "last_edited_user": null, "last_edited_date": null}, "geometry": {"type": "Point", "coordinates": [-74.08076896014731, 4.686100882846748]}}, {"type": "Feature", "properties": {"observ": "Valores de capacidad de buses en proceso de actualización", "longitud": -74.11158411000001, "latitud": 4.62785005, "objectid": 651, "num_est": "05107", "nom_est": "Distrito Grafiti", "id_trazado": "TZ009", "long_est": 115.715, "ancho_est": 3.0, "area_est": 347.145, "esta_oper": 1, "eta_oper": 1, "tipo_esta": 4, "ub_est": "Americas - KR 53A", "num_acc": 1, "acc_esp": 0, "acc_depr": 0, "acc_puent": 1, "cod_nodo": 5107, "cap_biart": 120, "num_vag": 2, "cap_art": 152, "globalid": "{E3B652CB-C75E-4D38-A421-42F86EBEE171}", "created_user": null, "created_date": null, "last_edited_user": null, "last_edited_date": null}, "geometry": {"type": "Point", "coordinates": [-74.11158410680022, 4.627850045092682]}}, {"type": "Feature", "properties": {"observ": "Valores de capacidad de buses en proceso de actualización", "longitud": -74.06433866, "latitud": 4.67016265, "objectid": 652, "num_est": "04108", "nom_est": "Polo - FINCOMERCIO", "id_trazado": "TZ005", "long_est": 220.0, "ancho_est": 4.0, "area_est": 880.0, "esta_oper": 1, "eta_oper": 1, "tipo_esta": 4, "ub_est": "TV 27", "num_acc": 1, "acc_esp": 0, "acc_depr": 0, "acc_puent": 1, "cod_nodo": 4108, "cap_biart": 168, "num_vag": 3, "cap_art": 192, "globalid": "{FFD89458-4A42-48A5-A015-BC2A8A44445B}", "created_user": null, "created_date": null, "last_edited_user": null, "last_edited_date": null}, "geometry": {"type": "Point", "coordinates": [-74.06433866057165, 4.670162650409122]}}, {"type": "Feature", "properties": {"observ": "Valores de capacidad de buses en proceso de actualización", "longitud": -74.08876139, "latitud": 4.5997872, "objectid": 653, "num_est": "07200", "nom_est": "Tygua - San José", "id_trazado": "TZ007", "long_est": 121.67, "ancho_est": 4.0, "area_est": 486.68, "esta_oper": 1, "eta_oper": 1, "tipo_esta": 4, "ub_est": "KR 18", "num_acc": 2, "acc_esp": 2, "acc_depr": 0, "acc_puent": 0, "cod_nodo": 7200, "cap_biart": 96, "num_vag": 2, "cap_art": 132, "globalid": "{5BE7C3B8-DAB4-48C5-9735-1BC75AFEFF70}", "created_user": null, "created_date": null, "last_edited_user": null, "last_edited_date": null}, "geometry": {"type": "Point", "coordinates": [-74.08876139103779, 4.599787201672794]}}, {"type": "Feature", "properties": {"observ": "Valores de capacidad de buses en proceso de actualización", "longitud": -74.09313226, "latitud": 4.63750353, "objectid": 654, "num_est": "06105", "nom_est": "Quinta Paredes", "id_trazado": "TZ016", "long_est": 96.49, "ancho_est": 3.0, "area_est": 289.47, "esta_oper": 1, "eta_oper": 1, "tipo_esta": 4, "ub_est": "KR 47", "num_acc": 1, "acc_esp": 0, "acc_depr": 0, "acc_puent": 1, "cod_nodo": 6105, "cap_biart": 120, "num_vag": 2, "cap_art": 140, "globalid": "{2F1D2C49-88FE-4C4C-A524-365F4CA41A47}", "created_user": null, "created_date": null, "last_edited_user": null, "last_edited_date": null}, "geometry": {"type": "Point", "coordinates": [-74.09313226319551, 4.637503527999294]}}, {"type": "Feature", "properties": {"observ": "Valores de capacidad de buses en proceso de actualización", "longitud": -74.10164882000001, "latitud": 4.65086482, "objectid": 655, "num_est": "06102", "nom_est": "Salitre - El Greco", "id_trazado": "TZ016", "long_est": 96.48, "ancho_est": 3.0, "area_est": 289.44, "esta_oper": 1, "eta_oper": 1, "tipo_esta": 4, "ub_est": "KR 66", "num_acc": 1, "acc_esp": 0, "acc_depr": 0, "acc_puent": 1, "cod_nodo": 6102, "cap_biart": 120, "num_vag": 2, "cap_art": 140, "globalid": "{FE69B635-951A-48F7-88CA-0ADB6D8B219F}", "created_user": null, "created_date": null, "last_edited_user": "editorInfraSTS", "last_edited_date": "2026-06-25T15:50:59Z"}, "geometry": {"type": "Point", "coordinates": [-74.10171935493257, 4.650982052341222]}}, {"type": "Feature", "properties": {"observ": "Valores de capacidad de buses en proceso de actualización", "longitud": -74.09868611, "latitud": 4.62032526, "objectid": 656, "num_est": "12007", "nom_est": "Zona Industrial", "id_trazado": "TZ009", "long_est": 96.29, "ancho_est": 4.0, "area_est": 385.16, "esta_oper": 1, "eta_oper": 1, "tipo_esta": 4, "ub_est": "CL 13 - KR 38", "num_acc": 2, "acc_esp": 2, "acc_depr": 0, "acc_puent": 0, "cod_nodo": 12007, "cap_biart": 48, "num_vag": 2, "cap_art": 120, "globalid": "{358F0BE7-66C2-4538-91BA-4D29438DE5B6}", "created_user": null, "created_date": null, "last_edited_user": null, "last_edited_date": null}, "geometry": {"type": "Point", "coordinates": [-74.09868610794165, 4.620325258204576]}}, {"type": "Feature", "properties": {"observ": "Valores de capacidad de buses en proceso de actualización", "longitud": -74.19313531, "latitud": 4.59217281, "objectid": 657, "num_est": "07505", "nom_est": "León XIII", "id_trazado": "TZ011", "long_est": 89.5, "ancho_est": 4.0, "area_est": 358.0, "esta_oper": 1, "eta_oper": 1, "tipo_esta": 4, "ub_est": "Soacha", "num_acc": 1, "acc_esp": 0, "acc_depr": 0, "acc_puent": 1, "cod_nodo": 7505, "cap_biart": 72, "num_vag": 2, "cap_art": 152, "globalid": "{0A840F23-9FB9-45DF-AC3D-7219183BA657}", "created_user": null, "created_date": null, "last_edited_user": null, "last_edited_date": null}, "geometry": {"type": "Point", "coordinates": [-74.19313531304007, 4.592172811180285]}}, {"type": "Feature", "properties": {"observ": "Valores de capacidad de buses en proceso de actualización", "longitud": -74.08955344, "latitud": 4.61692188, "objectid": 658, "num_est": "07110", "nom_est": "Paloquemao", "id_trazado": "TZ008", "long_est": 122.85, "ancho_est": 4.0, "area_est": 491.4, "esta_oper": 1, "eta_oper": 1, "tipo_esta": 4, "ub_est": "KR 30 - CL 19", "num_acc": 1, "acc_esp": 0, "acc_depr": 0, "acc_puent": 1, "cod_nodo": 7110, "cap_biart": 120, "num_vag": 2, "cap_art": 152, "globalid": "{F0096745-676E-4006-8A1B-CF3393046C7F}", "created_user": null, "created_date": null, "last_edited_user": null, "last_edited_date": null}, "geometry": {"type": "Point", "coordinates": [-74.089553444556, 4.616921876915299]}}, {"type": "Feature", "properties": {"observ": "Valores de capacidad de buses en proceso de actualización", "longitud": -74.10457027, "latitud": 4.70466646, "objectid": 659, "num_est": "04002", "nom_est": "Carrera 90", "id_trazado": "TZ005", "long_est": 142.15, "ancho_est": 4.0, "area_est": 568.6, "esta_oper": 1, "eta_oper": 1, "tipo_esta": 4, "ub_est": "KR 90", "num_acc": 1, "acc_esp": 0, "acc_depr": 0, "acc_puent": 1, "cod_nodo": 4002, "cap_biart": 144, "num_vag": 2, "cap_art": 160, "globalid": "{0DA9D43E-A47D-4E85-8AE6-CA90C0726D4B}", "created_user": null, "created_date": null, "last_edited_user": "editorInfraSTS", "last_edited_date": "2026-06-25T15:49:36Z"}, "geometry": {"type": "Point", "coordinates": [-74.1050502345663, 4.70487199855203]}}, {"type": "Feature", "properties": {"observ": "Valores de capacidad de buses en proceso de actualización", "longitud": -74.09653771, "latitud": 4.64283002, "objectid": 660, "num_est": "06104", "nom_est": "Gobernación", "id_trazado": "TZ016", "long_est": 96.49, "ancho_est": 3.0, "area_est": 289.47, "esta_oper": 1, "eta_oper": 1, "tipo_esta": 4, "ub_est": "KR 54", "num_acc": 1, "acc_esp": 0, "acc_depr": 0, "acc_puent": 1, "cod_nodo": 6104, "cap_biart": 120, "num_vag": 2, "cap_art": 140, "globalid": "{6F82F433-1F3F-4BB9-A96F-D675112E624C}", "created_user": null, "created_date": null, "last_edited_user": "editorInfraSTS", "last_edited_date": "2026-06-25T15:50:42Z"}, "geometry": {"type": "Point", "coordinates": [-74.09665220938193, 4.643012751042416]}}, {"type": "Feature", "properties": {"observ": "Valores de capacidad de buses en proceso de actualización", "longitud": -74.19952261, "latitud": 4.5889627, "objectid": 661, "num_est": "07504", "nom_est": "Terreros - Hospital Cardio Vascular", "id_trazado": "TZ011", "long_est": 89.5, "ancho_est": 4.0, "area_est": 358.0, "esta_oper": 1, "eta_oper": 1, "tipo_esta": 4, "ub_est": "Soacha", "num_acc": 1, "acc_esp": 0, "acc_depr": 0, "acc_puent": 1, "cod_nodo": 7504, "cap_biart": 144, "num_vag": 3, "cap_art": 212, "globalid": "{E58824EF-9651-4984-9A90-C2C62F022047}", "created_user": null, "created_date": null, "last_edited_user": null, "last_edited_date": null}, "geometry": {"type": "Point", "coordinates": [-74.199522612371, 4.588962704262017]}}, {"type": "Feature", "properties": {"observ": "Valores de capacidad de buses en proceso de actualización", "longitud": -74.06980215, "latitud": 4.67553501, "objectid": 662, "num_est": "04107", "nom_est": "Escuela Militar", "id_trazado": "TZ005", "long_est": 122.0, "ancho_est": 4.0, "area_est": 488.0, "esta_oper": 1, "eta_oper": 1, "tipo_esta": 4, "ub_est": "KR 40", "num_acc": 1, "acc_esp": 0, "acc_depr": 0, "acc_puent": 1, "cod_nodo": 4107, "cap_biart": 120, "num_vag": 2, "cap_art": 152, "globalid": "{273730CC-1C03-4961-A802-EE2120381DE1}", "created_user": null, "created_date": null, "last_edited_user": null, "last_edited_date": null}, "geometry": {"type": "Point", "coordinates": [-74.06980215105027, 4.675535012017993]}}, {"type": "Feature", "properties": {"observ": "Valores de capacidad de buses en proceso de actualización", "longitud": -74.14129817, "latitud": 4.63086366, "objectid": 663, "num_est": "05101", "nom_est": "Mandalay", "id_trazado": "TZ009", "long_est": 115.705, "ancho_est": 3.0, "area_est": 347.115, "esta_oper": 1, "eta_oper": 1, "tipo_esta": 4, "ub_est": "AV Americas KR 73", "num_acc": 1, "acc_esp": 0, "acc_depr": 0, "acc_puent": 1, "cod_nodo": 5101, "cap_biart": 96, "num_vag": 2, "cap_art": 144, "globalid": "{E2DFD4D8-9985-4B08-92FE-4C3B90E42CA0}", "created_user": null, "created_date": null, "last_edited_user": null, "last_edited_date": null}, "geometry": {"type": "Point", "coordinates": [-74.14129817180734, 4.630863657469235]}}, {"type": "Feature", "properties": {"observ": "Valores de capacidad de buses en proceso de actualización", "longitud": -74.10028965000001, "latitud": 4.70248285, "objectid": 664, "num_est": "04003", "nom_est": "AV. Cali", "id_trazado": "TZ005", "long_est": 142.15, "ancho_est": 4.0, "area_est": 568.6, "esta_oper": 1, "eta_oper": 1, "tipo_esta": 2, "ub_est": "KR 86", "num_acc": 1, "acc_esp": 0, "acc_depr": 0, "acc_puent": 1, "cod_nodo": 4003, "cap_biart": 144, "num_vag": 2, "cap_art": 160, "globalid": "{1D862D01-74E7-4047-BBD2-2774373E446D}", "created_user": null, "created_date": null, "last_edited_user": "editorInfraSTS", "last_edited_date": "2026-06-25T15:49:16Z"}, "geometry": {"type": "Point", "coordinates": [-74.09993048407954, 4.702211226918516]}}, {"type": "Feature", "properties": {"observ": "Valores de capacidad de buses en proceso de actualización", "longitud": -74.08699228, "latitud": 4.73893679, "objectid": 665, "num_est": "03002", "nom_est": "Suba - TV. 91", "id_trazado": "TZ003", "long_est": 273.89, "ancho_est": 4.0, "area_est": 1095.56, "esta_oper": 1, "eta_oper": 1, "tipo_esta": 4, "ub_est": "AV Suba KR 90", "num_acc": 2, "acc_esp": 1, "acc_depr": 0, "acc_puent": 1, "cod_nodo": 3002, "cap_biart": 96, "num_vag": 4, "cap_art": 168, "globalid": "{651F9F95-C4BF-49C0-BF89-CA072BC3139A}", "created_user": null, "created_date": null, "last_edited_user": "editorInfraSTS", "last_edited_date": "2026-06-25T15:53:11Z"}, "geometry": {"type": "Point", "coordinates": [-74.08746339298014, 4.739408717712319]}}, {"type": "Feature", "properties": {"observ": "Valores de capacidad de buses en proceso de actualización", "longitud": -74.0904765, "latitud": 4.61301798, "objectid": 666, "num_est": "12003", "nom_est": "Ricaurte - CL 13", "id_trazado": "TZ009", "long_est": 184.2, "ancho_est": 4.0, "area_est": 736.8, "esta_oper": 1, "eta_oper": 1, "tipo_esta": 3, "ub_est": "CL 13 - KR 28", "num_acc": 2, "acc_esp": 1, "acc_depr": 1, "acc_puent": 0, "cod_nodo": 12003, "cap_biart": 120, "num_vag": 6, "cap_art": 192, "globalid": "{0B062412-92ED-4299-98B7-EDE405CB3C73}", "created_user": null, "created_date": null, "last_edited_user": "editorInfraSTS", "last_edited_date": "2026-06-25T15:35:34Z"}, "geometry": {"type": "Point", "coordinates": [-74.09009249415548, 4.612680959785939]}}, {"type": "Feature", "properties": {"observ": "Valores de capacidad de buses en proceso de actualización", "longitud": -74.10142878, "latitud": 4.58184906, "objectid": 667, "num_est": "09104", "nom_est": "Restrepo", "id_trazado": "TZ012", "long_est": 120.17, "ancho_est": 4.0, "area_est": 480.68, "esta_oper": 1, "eta_oper": 1, "tipo_esta": 4, "ub_est": "CL 19 Sur - AV 1 De M", "num_acc": 2, "acc_esp": 2, "acc_depr": 0, "acc_puent": 0, "cod_nodo": 9104, "cap_biart": 72, "num_vag": 2, "cap_art": 128, "globalid": "{2C5764C2-59F3-4CAE-9110-4464F98F600F}", "created_user": null, "created_date": null, "last_edited_user": null, "last_edited_date": null}, "geometry": {"type": "Point", "coordinates": [-74.10142878243313, 4.581849057280713]}}, {"type": "Feature", "properties": {"observ": "Valores de capacidad de buses en proceso de actualización", "longitud": -74.05255829, "latitud": 4.71455843, "objectid": 668, "num_est": "02201", "nom_est": "Prado", "id_trazado": "TZ002", "long_est": 148.0, "ancho_est": 4.0, "area_est": 592.0, "esta_oper": 1, "eta_oper": 1, "tipo_esta": 4, "ub_est": "CL 128 B", "num_acc": 1, "acc_esp": 0, "acc_depr": 0, "acc_puent": 1, "cod_nodo": 2201, "cap_biart": 72, "num_vag": 3, "cap_art": 176, "globalid": "{F89C2540-3D20-4D68-86AA-DE140D847170}", "created_user": null, "created_date": null, "last_edited_user": null, "last_edited_date": null}, "geometry": {"type": "Point", "coordinates": [-74.0525582922202, 4.714558425952716]}}, {"type": "Feature", "properties": {"observ": "Valores de capacidad de buses en proceso de actualización", "longitud": -74.04357255, "latitud": 4.76881876, "objectid": 669, "num_est": "02502", "nom_est": "Terminal", "id_trazado": "TZ002", "long_est": 48.79, "ancho_est": 3.0, "area_est": 146.37, "esta_oper": 1, "eta_oper": 1, "tipo_esta": 4, "ub_est": "CL 190", "num_acc": 1, "acc_esp": 0, "acc_depr": 0, "acc_puent": 1, "cod_nodo": 2502, "cap_biart": 72, "num_vag": 1, "cap_art": 80, "globalid": "{099A93A7-5395-4842-A80D-CAB1FA280A3A}", "created_user": null, "created_date": null, "last_edited_user": "editorInfraSTS", "last_edited_date": "2026-06-25T15:33:57Z"}, "geometry": {"type": "Point", "coordinates": [-74.04366242900103, 4.768253143203189]}}, {"type": "Feature", "properties": {"observ": "Valores de capacidad de buses en proceso de actualización", "longitud": -74.05901952, "latitud": 4.67599737, "objectid": 670, "num_est": "02302", "nom_est": "Virrey", "id_trazado": "TZ002", "long_est": 193.28, "ancho_est": 4.0, "area_est": 773.12, "esta_oper": 1, "eta_oper": 1, "tipo_esta": 4, "ub_est": "CL 90", "num_acc": 1, "acc_esp": 0, "acc_depr": 0, "acc_puent": 1, "cod_nodo": 2302, "cap_biart": 144, "num_vag": 3, "cap_art": 208, "globalid": "{2EB6922F-5943-4D19-8120-75AD472DD770}", "created_user": null, "created_date": null, "last_edited_user": null, "last_edited_date": null}, "geometry": {"type": "Point", "coordinates": [-74.05901951709693, 4.675997370862644]}}, {"type": "Feature", "properties": {"observ": "Valores de capacidad de buses en proceso de actualización", "longitud": -74.04725485, "latitud": 4.74618498, "objectid": 671, "num_est": "02101", "nom_est": "Toberin - Foundever", "id_trazado": "TZ002", "long_est": 335.0, "ancho_est": 3.6, "area_est": 1206.0, "esta_oper": 1, "eta_oper": 1, "tipo_esta": 4, "ub_est": "CL 165", "num_acc": 1, "acc_esp": 0, "acc_depr": 0, "acc_puent": 1, "cod_nodo": 2101, "cap_biart": 216, "num_vag": 5, "cap_art": 336, "globalid": "{ECDFF31F-9E6D-43CD-BE7C-F9FC5843B32E}", "created_user": null, "created_date": null, "last_edited_user": null, "last_edited_date": null}, "geometry": {"type": "Point", "coordinates": [-74.04725484779414, 4.746184978881875]}}, {"type": "Feature", "properties": {"observ": "Valores de capacidad de buses en proceso de actualización", "longitud": -74.0553088, "latitud": 4.69812689, "objectid": 672, "num_est": "02204", "nom_est": "Pepe Sierra Universidad UTEL", "id_trazado": "TZ002", "long_est": 104.62, "ancho_est": 4.0, "area_est": 418.48, "esta_oper": 1, "eta_oper": 1, "tipo_esta": 4, "ub_est": "CL 116", "num_acc": 1, "acc_esp": 0, "acc_depr": 0, "acc_puent": 1, "cod_nodo": 2204, "cap_biart": 72, "num_vag": 2, "cap_art": 128, "globalid": "{2A155227-8833-46B6-9918-23532227A3BB}", "created_user": null, "created_date": null, "last_edited_user": "editorInfraSTS", "last_edited_date": "2026-05-28T12:50:35Z"}, "geometry": {"type": "Point", "coordinates": [-74.05530879980195, 4.698126889760766]}}, {"type": "Feature", "properties": {"observ": "Valores de capacidad de buses en proceso de actualización", "longitud": -74.0577123, "latitud": 4.68394944, "objectid": 673, "num_est": "02300", "nom_est": "Calle 100 - Marketmedios", "id_trazado": "TZ002", "long_est": 203.61, "ancho_est": 4.0, "area_est": 814.44, "esta_oper": 1, "eta_oper": 1, "tipo_esta": 4, "ub_est": "CL 97", "num_acc": 2, "acc_esp": 0, "acc_depr": 0, "acc_puent": 2, "cod_nodo": 2300, "cap_biart": 168, "num_vag": 3, "cap_art": 224, "globalid": "{8A0C2EA4-6EEB-4D2B-8616-F5A597098C16}", "created_user": null, "created_date": null, "last_edited_user": null, "last_edited_date": null}, "geometry": {"type": "Point", "coordinates": [-74.05771229681588, 4.683949437564952]}}, {"type": "Feature", "properties": {"observ": "Valores de capacidad de buses en proceso de actualización", "longitud": -74.05050333, "latitud": 4.72685009, "objectid": 674, "num_est": "02105", "nom_est": "Calle 142", "id_trazado": "TZ002", "long_est": 221.09, "ancho_est": 3.0, "area_est": 663.27, "esta_oper": 1, "eta_oper": 1, "tipo_esta": 4, "ub_est": "CL 142", "num_acc": 1, "acc_esp": 0, "acc_depr": 0, "acc_puent": 1, "cod_nodo": 2105, "cap_biart": 48, "num_vag": 4, "cap_art": 132, "globalid": "{B5B0F3FB-5582-4F60-82CA-3841B6E22C3B}", "created_user": null, "created_date": null, "last_edited_user": null, "last_edited_date": null}, "geometry": {"type": "Point", "coordinates": [-74.05050333189976, 4.726850089637862]}}, {"type": "Feature", "properties": {"observ": "Valores de capacidad de buses en proceso de actualización", "longitud": -74.04604465000001, "latitud": 4.75462286, "objectid": 675, "num_est": "02000", "nom_est": "Portal Norte – Unicervantes", "id_trazado": "TZ002", "long_est": 365.66, "ancho_est": 0.0, "area_est": 0.0, "esta_oper": 1, "eta_oper": 1, "tipo_esta": 1, "ub_est": "CL 173", "num_acc": 1, "acc_esp": 0, "acc_depr": 0, "acc_puent": 1, "cod_nodo": 2000, "cap_biart": 78, "num_vag": 1, "cap_art": 132, "globalid": "{29253416-B095-4BB5-8886-4749F4DD1517}", "created_user": null, "created_date": null, "last_edited_user": null, "last_edited_date": null}, "geometry": {"type": "Point", "coordinates": [-74.04604464924742, 4.754622860218019]}}, {"type": "Feature", "properties": {"observ": "Valores de capacidad de buses en proceso de actualización", "longitud": -74.0444437, "latitud": 4.76333655, "objectid": 676, "num_est": "02001", "nom_est": "Calle 187", "id_trazado": "TZ002", "long_est": 40.9, "ancho_est": 3.0, "area_est": 122.7, "esta_oper": 1, "eta_oper": 1, "tipo_esta": 4, "ub_est": "CL 184", "num_acc": 1, "acc_esp": 0, "acc_depr": 0, "acc_puent": 1, "cod_nodo": 2001, "cap_biart": 72, "num_vag": 1, "cap_art": 80, "globalid": "{323AFFF7-FD27-4654-ABF0-9F741FED51E0}", "created_user": null, "created_date": null, "last_edited_user": "editorInfraSTS", "last_edited_date": "2026-06-25T15:33:14Z"}, "geometry": {"type": "Point", "coordinates": [-74.04452767198975, 4.762808125248429]}}, {"type": "Feature", "properties": {"observ": "Valores de capacidad de buses en proceso de actualización", "longitud": -74.05145916000001, "latitud": 4.7211582, "objectid": 677, "num_est": "02200", "nom_est": "Alcalá – Colegio S. Tomás Dominicos", "id_trazado": "TZ002", "long_est": 205.19, "ancho_est": 4.0, "area_est": 820.76, "esta_oper": 1, "eta_oper": 1, "tipo_esta": 4, "ub_est": "CL 137", "num_acc": 2, "acc_esp": 0, "acc_depr": 0, "acc_puent": 2, "cod_nodo": 2200, "cap_biart": 168, "num_vag": 3, "cap_art": 224, "globalid": "{178C288B-32B3-45A7-BB95-2C0F3895A233}", "created_user": null, "created_date": null, "last_edited_user": null, "last_edited_date": null}, "geometry": {"type": "Point", "coordinates": [-74.05145916301784, 4.721158197762578]}}, {"type": "Feature", "properties": {"observ": "Valores de capacidad de buses en proceso de actualización", "longitud": -74.04981123, "latitud": 4.73089106, "objectid": 678, "num_est": "02104", "nom_est": "Calle 146", "id_trazado": "TZ002", "long_est": 86.3, "ancho_est": 4.0, "area_est": 345.2, "esta_oper": 1, "eta_oper": 1, "tipo_esta": 4, "ub_est": "CL 146", "num_acc": 1, "acc_esp": 0, "acc_depr": 0, "acc_puent": 1, "cod_nodo": 2104, "cap_biart": 72, "num_vag": 3, "cap_art": 176, "globalid": "{2D124533-077D-4F9F-9BE5-80B4F7E6BE1D}", "created_user": null, "created_date": null, "last_edited_user": null, "last_edited_date": null}, "geometry": {"type": "Point", "coordinates": [-74.04981122855385, 4.730891064158206]}}, {"type": "Feature", "properties": {"observ": "Valores de capacidad de buses en proceso de actualización", "longitud": -74.05422516, "latitud": 4.70463964, "objectid": 679, "num_est": "02202", "nom_est": "Calle 127", "id_trazado": "TZ002", "long_est": 104.57, "ancho_est": 4.0, "area_est": 418.28, "esta_oper": 1, "eta_oper": 1, "tipo_esta": 4, "ub_est": "CL 127", "num_acc": 1, "acc_esp": 0, "acc_depr": 0, "acc_puent": 1, "cod_nodo": 2202, "cap_biart": 72, "num_vag": 2, "cap_art": 128, "globalid": "{D604EA92-2242-49D8-BB39-4164AE62DDB3}", "created_user": null, "created_date": null, "last_edited_user": null, "last_edited_date": null}, "geometry": {"type": "Point", "coordinates": [-74.0542251639966, 4.704639636465494]}}, {"type": "Feature", "properties": {"observ": "Valores de capacidad de buses en proceso de actualización", "longitud": -74.06030995, "latitud": 4.66813603, "objectid": 680, "num_est": "02304", "nom_est": "Héroes - Colmena Seguros", "id_trazado": "TZ002", "long_est": 167.4, "ancho_est": 4.0, "area_est": 669.6, "esta_oper": 1, "eta_oper": 1, "tipo_esta": 4, "ub_est": "CL 80", "num_acc": 1, "acc_esp": 0, "acc_depr": 0, "acc_puent": 1, "cod_nodo": 2304, "cap_biart": 96, "num_vag": 3, "cap_art": 168, "globalid": "{FC726C2C-58F2-4134-9A17-9DECA4818013}", "created_user": null, "created_date": null, "last_edited_user": "editorInfraSTS", "last_edited_date": "2026-05-28T12:50:35Z"}, "geometry": {"type": "Point", "coordinates": [-74.06030995135728, 4.668136029647685]}}, {"type": "Feature", "properties": {"observ": "Valores de capacidad de buses en proceso de actualización", "longitud": -74.04800035, "latitud": 4.7419153, "objectid": 681, "num_est": "02102", "nom_est": "Calle 161", "id_trazado": "TZ002", "long_est": 172.62, "ancho_est": 3.0, "area_est": 517.86, "esta_oper": 1, "eta_oper": 1, "tipo_esta": 4, "ub_est": "CL 160", "num_acc": 1, "acc_esp": 0, "acc_depr": 0, "acc_puent": 1, "cod_nodo": 2102, "cap_biart": 0, "num_vag": 4, "cap_art": 96, "globalid": "{0DB48CE9-8964-4E5A-A411-48C7FEB37D4D}", "created_user": null, "created_date": null, "last_edited_user": null, "last_edited_date": null}, "geometry": {"type": "Point", "coordinates": [-74.04800034951191, 4.741915299191302]}}, {"type": "Feature", "properties": {"observ": "Valores de capacidad de buses en proceso de actualización", "longitud": -74.05618243, "latitud": 4.6929826, "objectid": 682, "num_est": "02205", "nom_est": "Calle 106 - Maletas Explora", "id_trazado": "TZ002", "long_est": 209.14, "ancho_est": 3.0, "area_est": 627.42, "esta_oper": 1, "eta_oper": 1, "tipo_esta": 4, "ub_est": "CL 106", "num_acc": 1, "acc_esp": 0, "acc_depr": 0, "acc_puent": 1, "cod_nodo": 2205, "cap_biart": 120, "num_vag": 4, "cap_art": 128, "globalid": "{621A3D60-D0B5-4C4F-92CF-6A29D588E20E}", "created_user": null, "created_date": null, "last_edited_user": null, "last_edited_date": null}, "geometry": {"type": "Point", "coordinates": [-74.05618243307303, 4.692982600439019]}}, {"type": "Feature", "properties": {"observ": "Valores de capacidad de buses en proceso de actualización", "longitud": -74.04922624, "latitud": 4.73458855, "objectid": 683, "num_est": "02103", "nom_est": "Mazurén", "id_trazado": "TZ002", "long_est": 172.63, "ancho_est": 3.2, "area_est": 552.416, "esta_oper": 1, "eta_oper": 1, "tipo_esta": 4, "ub_est": "CL 152", "num_acc": 1, "acc_esp": 0, "acc_depr": 0, "acc_puent": 1, "cod_nodo": 2103, "cap_biart": 72, "num_vag": 5, "cap_art": 176, "globalid": "{2D651DFB-B495-4CD6-A3E6-EF9DC5BCB8B9}", "created_user": null, "created_date": null, "last_edited_user": null, "last_edited_date": null}, "geometry": {"type": "Point", "coordinates": [-74.04922623638949, 4.734588554219222]}}, {"type": "Feature", "properties": {"observ": "Valores de capacidad de buses en proceso de actualización", "longitud": -74.06787872000001, "latitud": 4.63145241, "objectid": 684, "num_est": "09117", "nom_est": "Calle 45 - American School Way", "id_trazado": "TZ001", "long_est": 182.54, "ancho_est": 3.5, "area_est": 638.89, "esta_oper": 1, "eta_oper": 3, "tipo_esta": 4, "ub_est": "CL 45 - CL 42A", "num_acc": 2, "acc_esp": 2, "acc_depr": 0, "acc_puent": 0, "cod_nodo": 9117, "cap_biart": 120, "num_vag": 3, "cap_art": 200, "globalid": "{50BA7DE8-85DE-45EA-AE6A-4B23E8C97672}", "created_user": null, "created_date": null, "last_edited_user": "editorInfraSTS", "last_edited_date": "2026-05-28T13:01:18Z"}, "geometry": {"type": "Point", "coordinates": [-74.06787872328032, 4.631452412878287]}}, {"type": "Feature", "properties": {"observ": "Valores de capacidad de buses en proceso de actualización", "longitud": -74.07742142, "latitud": 4.68180475, "objectid": 685, "num_est": "04105", "nom_est": "Carrera 53", "id_trazado": "TZ005", "long_est": 45.75, "ancho_est": 4.0, "area_est": 183.0, "esta_oper": 1, "eta_oper": 1, "tipo_esta": 4, "ub_est": "KR 53", "num_acc": 1, "acc_esp": 0, "acc_depr": 0, "acc_puent": 1, "cod_nodo": 4105, "cap_biart": 72, "num_vag": 1, "cap_art": 80, "globalid": "{67A41BDC-02F5-4470-B0C0-121EEF265E86}", "created_user": null, "created_date": null, "last_edited_user": null, "last_edited_date": null}, "geometry": {"type": "Point", "coordinates": [-74.07742142136232, 4.681804753883138]}}, {"type": "Feature", "properties": {"observ": "Valores de capacidad de buses en proceso de actualización", "longitud": -74.06444317, "latitud": 4.67561116, "objectid": 686, "num_est": "07101", "nom_est": "La Castellana", "id_trazado": "TZ008", "long_est": 164.3, "ancho_est": 4.0, "area_est": 657.2, "esta_oper": 1, "eta_oper": 1, "tipo_esta": 4, "ub_est": "KR 30 KR 24", "num_acc": 1, "acc_esp": 0, "acc_depr": 0, "acc_puent": 1, "cod_nodo": 7101, "cap_biart": 72, "num_vag": 4, "cap_art": 160, "globalid": "{A76F219A-084F-4BFA-8774-CB803B50446B}", "created_user": null, "created_date": null, "last_edited_user": null, "last_edited_date": null}, "geometry": {"type": "Point", "coordinates": [-74.06444316945309, 4.675611154981965]}}, {"type": "Feature", "properties": {"observ": "Valores de capacidad de buses en proceso de actualización", "longitud": -74.0937094, "latitud": 4.57693931, "objectid": 687, "num_est": "10002", "nom_est": "AV. 1 Mayo", "id_trazado": "TZ018", "long_est": 217.32, "ancho_est": 4.0, "area_est": 869.28, "esta_oper": 1, "eta_oper": 1, "tipo_esta": 2, "ub_est": "AV 1 De Mayo Con KR 7", "num_acc": 2, "acc_esp": 2, "acc_depr": 0, "acc_puent": 0, "cod_nodo": 10002, "cap_biart": 168, "num_vag": 3, "cap_art": 216, "globalid": "{A18AF6FB-191E-456F-990A-CE3B35A77AC1}", "created_user": null, "created_date": null, "last_edited_user": null, "last_edited_date": null}, "geometry": {"type": "Point", "coordinates": [-74.0937094048318, 4.576939314363686]}}, {"type": "Feature", "properties": {"observ": "Valores de capacidad de buses en proceso de actualización", "longitud": -74.08189427, "latitud": 4.6054211, "objectid": 688, "num_est": "14001", "nom_est": "De La Sabana", "id_trazado": "TZ009", "long_est": 96.47, "ancho_est": 4.0, "area_est": 385.88, "esta_oper": 1, "eta_oper": 1, "tipo_esta": 4, "ub_est": "CL 13 - KR 16", "num_acc": 2, "acc_esp": 2, "acc_depr": 0, "acc_puent": 0, "cod_nodo": 14001, "cap_biart": 48, "num_vag": 2, "cap_art": 120, "globalid": "{CFB2B265-A8FD-4B97-8475-309293FB3A6E}", "created_user": null, "created_date": null, "last_edited_user": null, "last_edited_date": null}, "geometry": {"type": "Point", "coordinates": [-74.08189427103363, 4.605421100257434]}}, {"type": "Feature", "properties": {"observ": "Valores de capacidad de buses en proceso de actualización", "longitud": -74.18811218, "latitud": 4.59459382, "objectid": 689, "num_est": "07506", "nom_est": "La Despensa", "id_trazado": "TZ011", "long_est": 89.5, "ancho_est": 4.0, "area_est": 358.0, "esta_oper": 1, "eta_oper": 1, "tipo_esta": 4, "ub_est": "Soacha", "num_acc": 1, "acc_esp": 0, "acc_depr": 0, "acc_puent": 1, "cod_nodo": 7506, "cap_biart": 72, "num_vag": 2, "cap_art": 152, "globalid": "{F49C22FF-8BAE-41A0-ACCC-344A407E87B4}", "created_user": null, "created_date": null, "last_edited_user": null, "last_edited_date": null}, "geometry": {"type": "Point", "coordinates": [-74.18811218177783, 4.59459381881802]}}, {"type": "Feature", "properties": {"observ": "Valores de capacidad de buses en proceso de actualización", "longitud": -74.06206786, "latitud": 4.65823755, "objectid": 690, "num_est": "09122", "nom_est": "Calle 72 - Areandina", "id_trazado": "TZ001", "long_est": 383.0, "ancho_est": 5.0, "area_est": 1915.0, "esta_oper": 1, "eta_oper": 1, "tipo_esta": 4, "ub_est": "CL 72 - CL 70A", "num_acc": 2, "acc_esp": 2, "acc_depr": 0, "acc_puent": 0, "cod_nodo": 9122, "cap_biart": 0, "num_vag": 3, "cap_art": 0, "globalid": "{DCD7B4A0-11E7-4914-BD67-A478301D429F}", "created_user": null, "created_date": null, "last_edited_user": "editorInfraSTS", "last_edited_date": "2026-08-24T13:35:07Z"}, "geometry": {"type": "Point", "coordinates": [-74.06206786085158, 4.658237545704798]}}, {"type": "Feature", "properties": {"observ": "Valores de capacidad de buses en proceso de actualización", "longitud": -74.07632059000001, "latitud": 4.62046499, "objectid": 691, "num_est": "06109", "nom_est": "Centro Memoria", "id_trazado": "TZ016", "long_est": 130.01, "ancho_est": 4.0, "area_est": 520.04, "esta_oper": 1, "eta_oper": 1, "tipo_esta": 4, "ub_est": "KR 20", "num_acc": 2, "acc_esp": 2, "acc_depr": 0, "acc_puent": 0, "cod_nodo": 6109, "cap_biart": 120, "num_vag": 2, "cap_art": 140, "globalid": "{B99A56BA-E706-4A5B-BDAD-26F4115F877A}", "created_user": null, "created_date": null, "last_edited_user": null, "last_edited_date": null}, "geometry": {"type": "Point", "coordinates": [-74.07632059291059, 4.620464994750269]}}, {"type": "Feature", "properties": {"observ": "Valores de capacidad de buses en proceso de actualización", "longitud": -74.10143788, "latitud": 4.62278154, "objectid": 692, "num_est": "12001", "nom_est": "Carrera 43 - Comapan", "id_trazado": "TZ009", "long_est": 96.45, "ancho_est": 4.0, "area_est": 385.8, "esta_oper": 1, "eta_oper": 1, "tipo_esta": 4, "ub_est": "AV Americas - KR 43", "num_acc": 2, "acc_esp": 2, "acc_depr": 0, "acc_puent": 0, "cod_nodo": 12001, "cap_biart": 48, "num_vag": 2, "cap_art": 120, "globalid": "{24588D37-3990-42EB-8EA3-39E36B55C87D}", "created_user": null, "created_date": null, "last_edited_user": null, "last_edited_date": null}, "geometry": {"type": "Point", "coordinates": [-74.10143787790989, 4.62278153734826]}}, {"type": "Feature", "properties": {"observ": "Valores de capacidad de buses en proceso de actualización", "longitud": -74.12387433, "latitud": 4.5602273, "objectid": 693, "num_est": "09002", "nom_est": "Consuelo", "id_trazado": "TZ012", "long_est": 81.57, "ancho_est": 4.0, "area_est": 326.28, "esta_oper": 1, "eta_oper": 1, "tipo_esta": 4, "ub_est": "KR 11A - KR 10C", "num_acc": 1, "acc_esp": 1, "acc_depr": 0, "acc_puent": 0, "cod_nodo": 9002, "cap_biart": 72, "num_vag": 2, "cap_art": 120, "globalid": "{4338B4D6-314C-41C0-AA14-317498DE8561}", "created_user": null, "created_date": null, "last_edited_user": "editorInfraSTS", "last_edited_date": "2026-06-25T15:43:41Z"}, "geometry": {"type": "Point", "coordinates": [-74.12381078699146, 4.5600935055591]}}, {"type": "Feature", "properties": {"observ": "Valores de capacidad de buses en proceso de actualización", "longitud": -74.08040995, "latitud": 4.60286688, "objectid": 694, "num_est": "09110", "nom_est": "Temporal AV. Jiménez - Inter Eléctricas", "id_trazado": "TZ001", "long_est": 180.33, "ancho_est": 3.5, "area_est": 631.155, "esta_oper": 1, "eta_oper": 1, "tipo_esta": 3, "ub_est": "CL 13 - CL 11", "num_acc": 2, "acc_esp": 1, "acc_depr": 1, "acc_puent": 0, "cod_nodo": 9110, "cap_biart": 96, "num_vag": 3, "cap_art": 192, "globalid": "{EE40D368-4BB3-48BE-922A-491ABBD877AF}", "created_user": null, "created_date": null, "last_edited_user": "editorInfraSTS", "last_edited_date": "2026-06-25T15:29:08Z"}, "geometry": {"type": "Point", "coordinates": [-74.08232653412165, 4.600166621036774]}}, {"type": "Feature", "properties": {"observ": "Valores de capacidad de buses en proceso de actualización", "longitud": -74.09986137, "latitud": 4.60424998, "objectid": 695, "num_est": "07112", "nom_est": "Comuneros", "id_trazado": "TZ010", "long_est": 130.16, "ancho_est": 4.0, "area_est": 520.64, "esta_oper": 1, "eta_oper": 1, "tipo_esta": 4, "ub_est": "KR 30 - CL 6A", "num_acc": 2, "acc_esp": 1, "acc_depr": 0, "acc_puent": 1, "cod_nodo": 7112, "cap_biart": 108, "num_vag": 2, "cap_art": 144, "globalid": "{CC73317E-35CC-4D80-9D23-DB9348465D42}", "created_user": null, "created_date": null, "last_edited_user": null, "last_edited_date": null}, "geometry": {"type": "Point", "coordinates": [-74.0998613741849, 4.604249975583671]}}, {"type": "Feature", "properties": {"observ": "Valores de capacidad de buses en proceso de actualización", "longitud": -74.10564666, "latitud": 4.65706705, "objectid": 696, "num_est": "06101", "nom_est": "El Tiempo – Cámara de Comercio de Bogotá", "id_trazado": "TZ016", "long_est": 96.48, "ancho_est": 3.0, "area_est": 289.44, "esta_oper": 1, "eta_oper": 1, "tipo_esta": 4, "ub_est": "KR 68D", "num_acc": 1, "acc_esp": 0, "acc_depr": 0, "acc_puent": 1, "cod_nodo": 6101, "cap_biart": 120, "num_vag": 2, "cap_art": 120, "globalid": "{35F21613-6A72-4978-9D76-36AFD0AD6493}", "created_user": null, "created_date": null, "last_edited_user": null, "last_edited_date": null}, "geometry": {"type": "Point", "coordinates": [-74.10564665978902, 4.6570670471491]}}, {"type": "Feature", "properties": {"observ": "Valores de capacidad de buses en proceso de actualización", "longitud": -74.15935249, "latitud": 4.63790778, "objectid": 697, "num_est": "05002", "nom_est": "Biblioteca Tintal", "id_trazado": "TZ009", "long_est": 199.2, "ancho_est": 4.5, "area_est": 896.4, "esta_oper": 1, "eta_oper": 1, "tipo_esta": 4, "ub_est": "AV Cali - CL 26 Sur", "num_acc": 2, "acc_esp": 2, "acc_depr": 0, "acc_puent": 0, "cod_nodo": 5002, "cap_biart": 144, "num_vag": 2, "cap_art": 160, "globalid": "{6366CF6A-8B17-4E3C-B57B-48538DFC4AD7}", "created_user": null, "created_date": null, "last_edited_user": "editorInfraSTS", "last_edited_date": "2026-06-25T15:36:42Z"}, "geometry": {"type": "Point", "coordinates": [-74.15895645390489, 4.638263789456411]}}, {"type": "Feature", "properties": {"observ": "Valores de capacidad de buses en proceso de actualización", "longitud": -74.0903516, "latitud": 4.58154254, "objectid": 698, "num_est": "10003", "nom_est": "Ciudad Jardín - UAN", "id_trazado": "TZ018", "long_est": 108.28, "ancho_est": 4.0, "area_est": 433.12, "esta_oper": 1, "eta_oper": 1, "tipo_esta": 4, "ub_est": "KR 10 - CL 12 Sur", "num_acc": 1, "acc_esp": 1, "acc_depr": 0, "acc_puent": 0, "cod_nodo": 10003, "cap_biart": 120, "num_vag": 2, "cap_art": 144, "globalid": "{75C75616-85E3-4924-B355-4385F7B29816}", "created_user": null, "created_date": null, "last_edited_user": null, "last_edited_date": null}, "geometry": {"type": "Point", "coordinates": [-74.09035159822346, 4.581542540921835]}}, {"type": "Feature", "properties": {"observ": "Valores de capacidad de buses en proceso de actualización", "longitud": -74.08183542, "latitud": 4.59402077, "objectid": 699, "num_est": "10005", "nom_est": "Bicentenario", "id_trazado": "TZ018", "long_est": 183.26, "ancho_est": 4.0, "area_est": 733.04, "esta_oper": 1, "eta_oper": 1, "tipo_esta": 2, "ub_est": "KR 10 - CL 5", "num_acc": 1, "acc_esp": 0, "acc_depr": 0, "acc_puent": 1, "cod_nodo": 10005, "cap_biart": 168, "num_vag": 3, "cap_art": 216, "globalid": "{4D9D68B3-7B78-4799-9433-736648B745C8}", "created_user": null, "created_date": null, "last_edited_user": "editorInfraSTS", "last_edited_date": "2026-06-25T15:37:40Z"}, "geometry": {"type": "Point", "coordinates": [-74.08233056329063, 4.593315985687481]}}, {"type": "Feature", "properties": {"observ": "Valores de capacidad de buses en proceso de actualización", "longitud": -74.06582825999999, "latitud": 4.64298162, "objectid": 700, "num_est": "09119", "nom_est": "Temporal Calle 57", "id_trazado": "TZ001", "long_est": 150.39, "ancho_est": 3.5, "area_est": 526.365, "esta_oper": 1, "eta_oper": 1, "tipo_esta": 4, "ub_est": "CL 57 - CL 54", "num_acc": 2, "acc_esp": 2, "acc_depr": 0, "acc_puent": 0, "cod_nodo": 9119, "cap_biart": 120, "num_vag": 2, "cap_art": 200, "globalid": "{F60E7668-EACA-48D8-9E3A-3EF5452A79C6}", "created_user": null, "created_date": null, "last_edited_user": "editorInfraSTS", "last_edited_date": "2026-06-25T15:22:48Z"}, "geometry": {"type": "Point", "coordinates": [-74.06544770345945, 4.645014003617852]}}, {"type": "Feature", "properties": {"observ": "Valores de capacidad de buses en proceso de actualización", "longitud": -74.13038868000001, "latitud": 4.57030352, "objectid": 701, "num_est": "08002", "nom_est": "Biblioteca", "id_trazado": "TZ014", "long_est": 45.68, "ancho_est": 0.0, "area_est": 0.0, "esta_oper": 1, "eta_oper": 1, "tipo_esta": 4, "ub_est": "CL 48A Sur", "num_acc": 1, "acc_esp": 1, "acc_depr": 0, "acc_puent": 0, "cod_nodo": 8002, "cap_biart": 24, "num_vag": 1, "cap_art": 36, "globalid": "{7CA09A1D-2C80-47B1-9031-D0B4707FC323}", "created_user": null, "created_date": null, "last_edited_user": null, "last_edited_date": null}, "geometry": {"type": "Point", "coordinates": [-74.1303886787077, 4.57030351923882]}}, {"type": "Feature", "properties": {"observ": "Valores de capacidad de buses en proceso de actualización", "longitud": -74.07987857, "latitud": 4.63066841, "objectid": 702, "num_est": "07108", "nom_est": "AV. ElDorado", "id_trazado": "TZ008", "long_est": 48.1, "ancho_est": 4.0, "area_est": 192.4, "esta_oper": 1, "eta_oper": 1, "tipo_esta": 4, "ub_est": "KR 30 AV 28", "num_acc": 1, "acc_esp": 0, "acc_depr": 0, "acc_puent": 1, "cod_nodo": 7108, "cap_biart": 120, "num_vag": 2, "cap_art": 140, "globalid": "{F78EDE74-ECA6-4E43-A0E3-FE0D85B3C8B2}", "created_user": null, "created_date": null, "last_edited_user": "editorInfraSTS", "last_edited_date": "2026-06-25T15:34:33Z"}, "geometry": {"type": "Point", "coordinates": [-74.07995827950504, 4.630121524783391]}}, {"type": "Feature", "properties": {"observ": "Valores de capacidad de buses en proceso de actualización", "longitud": -74.07215846000001, "latitud": 4.61665155, "objectid": 703, "num_est": "09114", "nom_est": "Calle 26 - Atrio", "id_trazado": "TZ001", "long_est": 182.52, "ancho_est": 3.5, "area_est": 638.82, "esta_oper": 1, "eta_oper": 1, "tipo_esta": 4, "ub_est": "AV Calle 28 - CL 2", "num_acc": 2, "acc_esp": 2, "acc_depr": 0, "acc_puent": 0, "cod_nodo": 9114, "cap_biart": 0, "num_vag": 3, "cap_art": 0, "globalid": "{77A99556-E940-48E6-8999-E872864D9A1B}", "created_user": null, "created_date": null, "last_edited_user": "editorInfraSTS", "last_edited_date": "2026-07-02T21:08:00Z"}, "geometry": {"type": "Point", "coordinates": [-74.07215845806978, 4.616651548430109]}}, {"type": "Feature", "properties": {"observ": "Valores de capacidad de buses en proceso de actualización", "longitud": -74.13426993, "latitud": 4.59426993, "objectid": 704, "num_est": "07005", "nom_est": "Alquería", "id_trazado": "TZ010", "long_est": 89.25, "ancho_est": 4.0, "area_est": 357.0, "esta_oper": 1, "eta_oper": 1, "tipo_esta": 4, "ub_est": "Autosur - KR 48", "num_acc": 1, "acc_esp": 0, "acc_depr": 0, "acc_puent": 1, "cod_nodo": 7005, "cap_biart": 72, "num_vag": 2, "cap_art": 132, "globalid": "{7FD49F39-AC89-465D-81E4-DCA01E57B876}", "created_user": null, "created_date": null, "last_edited_user": null, "last_edited_date": null}, "geometry": {"type": "Point", "coordinates": [-74.13426992732451, 4.594269934546364]}}, {"type": "Feature", "properties": {"observ": "Valores de capacidad de buses en proceso de actualización", "longitud": -74.181225, "latitud": 4.59688795, "objectid": 705, "num_est": "07010", "nom_est": "Bosa", "id_trazado": "TZ010", "long_est": 126.08, "ancho_est": 4.0, "area_est": 504.32, "esta_oper": 1, "eta_oper": 1, "tipo_esta": 4, "ub_est": "Soacha", "num_acc": 2, "acc_esp": 0, "acc_depr": 0, "acc_puent": 2, "cod_nodo": 7010, "cap_biart": 120, "num_vag": 2, "cap_art": 152, "globalid": "{23AA251B-55EA-4A49-8E50-BA2D18F9FDE8}", "created_user": null, "created_date": null, "last_edited_user": null, "last_edited_date": null}, "geometry": {"type": "Point", "coordinates": [-74.18122499859422, 4.596887946711874]}}, {"type": "Feature", "properties": {"observ": "Valores de capacidad de buses en proceso de actualización", "longitud": -74.08418121000001, "latitud": 4.62341573, "objectid": 706, "num_est": "07109", "nom_est": "CAD", "id_trazado": "TZ008", "long_est": 130.07, "ancho_est": 4.0, "area_est": 520.28, "esta_oper": 1, "eta_oper": 1, "tipo_esta": 4, "ub_est": "KR 30 - CL 26", "num_acc": 2, "acc_esp": 0, "acc_depr": 0, "acc_puent": 2, "cod_nodo": 7109, "cap_biart": 120, "num_vag": 2, "cap_art": 152, "globalid": "{CC9EB24C-A4EA-4EC8-9D3C-538ED6D1241F}", "created_user": null, "created_date": null, "last_edited_user": null, "last_edited_date": null}, "geometry": {"type": "Point", "coordinates": [-74.0841812050935, 4.623415731317321]}}, {"type": "Feature", "properties": {"observ": "Valores de capacidad de buses en proceso de actualización", "longitud": -74.14576996000001, "latitud": 4.63129454, "objectid": 707, "num_est": "05100", "nom_est": "Banderas", "id_trazado": "TZ009", "long_est": 536.19, "ancho_est": 0.0, "area_est": 0.0, "esta_oper": 1, "eta_oper": 1, "tipo_esta": 2, "ub_est": "AV Americas - KR 78", "num_acc": 2, "acc_esp": 0, "acc_depr": 0, "acc_puent": 2, "cod_nodo": 5100, "cap_biart": 288, "num_vag": 4, "cap_art": 320, "globalid": "{BBE457C1-3F81-4BB3-9437-CA5C31DCA52F}", "created_user": null, "created_date": null, "last_edited_user": null, "last_edited_date": null}, "geometry": {"type": "Point", "coordinates": [-74.1457699625961, 4.631294536922991]}}, {"type": "Feature", "properties": {"observ": "Valores de capacidad de buses en proceso de actualización", "longitud": -74.07686968, "latitud": 4.60786462, "objectid": 708, "num_est": "09111", "nom_est": "Calle 19", "id_trazado": "TZ001", "long_est": 182.49, "ancho_est": 3.5, "area_est": 638.715, "esta_oper": 1, "eta_oper": 3, "tipo_esta": 4, "ub_est": "CL 19 - CL 17", "num_acc": 2, "acc_esp": 2, "acc_depr": 0, "acc_puent": 0, "cod_nodo": 9111, "cap_biart": 120, "num_vag": 3, "cap_art": 200, "globalid": "{F44B08F5-40A7-4CD9-8857-BD0B59B9A082}", "created_user": null, "created_date": null, "last_edited_user": null, "last_edited_date": null}, "geometry": {"type": "Point", "coordinates": [-74.07686967795432, 4.607864622138164]}}, {"type": "Feature", "properties": {"observ": "Valores de capacidad de buses en proceso de actualización", "longitud": -74.07909278, "latitud": 4.60305325, "objectid": 709, "num_est": "14003", "nom_est": "Temporal AV. Jiménez - Inter Eléctricas", "id_trazado": "TZ015", "long_est": 124.6, "ancho_est": 0.0, "area_est": 0.0, "esta_oper": 1, "eta_oper": 1, "tipo_esta": 3, "ub_est": "CL 13 - Caracas", "num_acc": 1, "acc_esp": 1, "acc_depr": 0, "acc_puent": 0, "cod_nodo": 14003, "cap_biart": 120, "num_vag": 5, "cap_art": 152, "globalid": "{CF2B6117-5A42-44E9-9CB5-DA23011674EF}", "created_user": null, "created_date": null, "last_edited_user": "editorInfraSTS", "last_edited_date": "2026-06-25T15:23:14Z"}, "geometry": {"type": "Point", "coordinates": [-74.07896838385648, 4.602953402308559]}}, {"type": "Feature", "properties": {"observ": "Valores de capacidad de buses en proceso de actualización", "longitud": -74.07836246, "latitud": 4.65003985, "objectid": 710, "num_est": "07105", "nom_est": "Movistar Arena", "id_trazado": "TZ008", "long_est": 122.82, "ancho_est": 4.0, "area_est": 491.28, "esta_oper": 1, "eta_oper": 1, "tipo_esta": 4, "ub_est": "KR 30 - CL 57", "num_acc": 1, "acc_esp": 0, "acc_depr": 0, "acc_puent": 1, "cod_nodo": 7105, "cap_biart": 120, "num_vag": 2, "cap_art": 152, "globalid": "{D42C2D37-741D-42C7-8D78-87F5641D9424}", "created_user": null, "created_date": null, "last_edited_user": "editorInfraSTS", "last_edited_date": "2026-06-25T15:34:55Z"}, "geometry": {"type": "Point", "coordinates": [-74.07837670962138, 4.649840483904393]}}, {"type": "Feature", "properties": {"observ": "Valores de capacidad de buses en proceso de actualización", "longitud": -74.06126126, "latitud": 4.66302945, "objectid": 712, "num_est": "09123", "nom_est": "Calle 76 - San Felipe", "id_trazado": "TZ001", "long_est": 182.25, "ancho_est": 3.5, "area_est": 637.875, "esta_oper": 1, "eta_oper": 1, "tipo_esta": 4, "ub_est": "CL 76 - CL 74", "num_acc": 2, "acc_esp": 2, "acc_depr": 0, "acc_puent": 0, "cod_nodo": 9123, "cap_biart": 120, "num_vag": 3, "cap_art": 200, "globalid": "{86FD53F3-A40C-4C50-ACF1-D653347DE982}", "created_user": null, "created_date": null, "last_edited_user": null, "last_edited_date": null}, "geometry": {"type": "Point", "coordinates": [-74.06126126157599, 4.663029449928692]}}, {"type": "Feature", "properties": {"observ": "Valores de capacidad de buses en proceso de actualización", "longitud": -74.06487053000001, "latitud": 4.64840397, "objectid": 713, "num_est": "09120", "nom_est": "Calle 63", "id_trazado": "TZ001", "long_est": 187.6, "ancho_est": 3.5, "area_est": 656.6, "esta_oper": 1, "eta_oper": 3, "tipo_esta": 4, "ub_est": "CL 63 - CL 60", "num_acc": 2, "acc_esp": 2, "acc_depr": 0, "acc_puent": 0, "cod_nodo": 9120, "cap_biart": 0, "num_vag": 3, "cap_art": 0, "globalid": "{210265F2-74C5-4AC9-96D7-1B81677556C2}", "created_user": null, "created_date": null, "last_edited_user": null, "last_edited_date": null}, "geometry": {"type": "Point", "coordinates": [-74.06487053484368, 4.648403969921902]}}, {"type": "Feature", "properties": {"observ": "Valores de capacidad de buses en proceso de actualización", "longitud": -74.05964363, "latitud": 4.67231279, "objectid": 714, "num_est": "02303", "nom_est": "Calle 85", "id_trazado": "TZ002", "long_est": 216.42, "ancho_est": 4.0, "area_est": 865.68, "esta_oper": 1, "eta_oper": 1, "tipo_esta": 4, "ub_est": "CL 85", "num_acc": 1, "acc_esp": 0, "acc_depr": 0, "acc_puent": 1, "cod_nodo": 2303, "cap_biart": 120, "num_vag": 4, "cap_art": 200, "globalid": "{76B77DC3-C5DE-4DD6-9F01-9FC58064FA28}", "created_user": null, "created_date": null, "last_edited_user": null, "last_edited_date": null}, "geometry": {"type": "Point", "coordinates": [-74.05964363107933, 4.672312786740467]}}, {"type": "Feature", "properties": {"observ": "Valores de capacidad de buses en proceso de actualización", "longitud": -74.11788075, "latitud": 4.59479847, "objectid": 715, "num_est": "07008", "nom_est": "NQS - Calle 30 S", "id_trazado": "TZ010", "long_est": 89.62, "ancho_est": 4.0, "area_est": 358.48, "esta_oper": 1, "eta_oper": 1, "tipo_esta": 4, "ub_est": "Autosur - DG 26 Sur", "num_acc": 1, "acc_esp": 1, "acc_depr": 0, "acc_puent": 0, "cod_nodo": 7008, "cap_biart": 72, "num_vag": 2, "cap_art": 160, "globalid": "{C4900383-3589-4E4A-A3A7-26C6FF2A5598}", "created_user": null, "created_date": null, "last_edited_user": "editorInfraSTS", "last_edited_date": "2026-06-25T15:41:57Z"}, "geometry": {"type": "Point", "coordinates": [-74.11814917192282, 4.594738907433427]}}, {"type": "Feature", "properties": {"observ": "Valores de capacidad de buses en proceso de actualización", "longitud": -74.09863413000001, "latitud": 4.57141673, "objectid": 716, "num_est": "10001", "nom_est": "Country Sur", "id_trazado": "TZ018", "long_est": 115.31, "ancho_est": 4.0, "area_est": 461.24, "esta_oper": 1, "eta_oper": 1, "tipo_esta": 4, "ub_est": "KR 10 - CL 28 Sur", "num_acc": 2, "acc_esp": 2, "acc_depr": 0, "acc_puent": 0, "cod_nodo": 10001, "cap_biart": 120, "num_vag": 2, "cap_art": 144, "globalid": "{252EAE5A-928E-4517-9098-B8016CB9465C}", "created_user": null, "created_date": null, "last_edited_user": null, "last_edited_date": null}, "geometry": {"type": "Point", "coordinates": [-74.09863412542575, 4.571416733654898]}}, {"type": "Feature", "properties": {"observ": "Valores de capacidad de buses en proceso de actualización", "longitud": -74.07325476, "latitud": 4.67775575, "objectid": 717, "num_est": "04106", "nom_est": "Carrera 47", "id_trazado": "TZ005", "long_est": 155.0, "ancho_est": 4.0, "area_est": 620.0, "esta_oper": 1, "eta_oper": 1, "tipo_esta": 4, "ub_est": "KR 46", "num_acc": 1, "acc_esp": 1, "acc_depr": 0, "acc_puent": 0, "cod_nodo": 4106, "cap_biart": 144, "num_vag": 2, "cap_art": 160, "globalid": "{6E191698-F849-4B58-B023-1136BF7A274D}", "created_user": null, "created_date": null, "last_edited_user": null, "last_edited_date": null}, "geometry": {"type": "Point", "coordinates": [-74.07325476094951, 4.677755746127176]}}, {"type": "Feature", "properties": {"observ": "Valores de capacidad de buses en proceso de actualización", "longitud": -74.11050627, "latitud": 4.70982949, "objectid": 718, "num_est": "04000", "nom_est": "Portal 80", "id_trazado": "TZ005", "long_est": 281.77, "ancho_est": 0.0, "area_est": 0.0, "esta_oper": 1, "eta_oper": 1, "tipo_esta": 1, "ub_est": "KR 96", "num_acc": 1, "acc_esp": 1, "acc_depr": 0, "acc_puent": 0, "cod_nodo": 4000, "cap_biart": 55, "num_vag": 1, "cap_art": 110, "globalid": "{E9051354-930E-4213-A381-733D35054EED}", "created_user": null, "created_date": null, "last_edited_user": null, "last_edited_date": null}, "geometry": {"type": "Point", "coordinates": [-74.11050626882579, 4.709829487984559]}}, {"type": "Feature", "properties": {"observ": "Valores de capacidad de buses en proceso de actualización", "longitud": -74.10736381999999, "latitud": 4.57891519, "objectid": 719, "num_est": "09103", "nom_est": "Olaya", "id_trazado": "TZ012", "long_est": 76.82, "ancho_est": 4.0, "area_est": 307.28, "esta_oper": 1, "eta_oper": 1, "tipo_esta": 4, "ub_est": "CL 24 Sur - CL 27 Sur", "num_acc": 1, "acc_esp": 1, "acc_depr": 0, "acc_puent": 0, "cod_nodo": 9103, "cap_biart": 120, "num_vag": 3, "cap_art": 176, "globalid": "{42DE452D-4155-4A6A-B678-25B0F235D789}", "created_user": null, "created_date": null, "last_edited_user": null, "last_edited_date": null}, "geometry": {"type": "Point", "coordinates": [-74.1073638244642, 4.578915188912788]}}, {"type": "Feature", "properties": {"observ": "Valores de capacidad de buses en proceso de actualización", "longitud": -74.12182779, "latitud": 4.55706456, "objectid": 720, "num_est": "09001", "nom_est": "Molinos", "id_trazado": "TZ012", "long_est": 108.12, "ancho_est": 4.0, "area_est": 432.48, "esta_oper": 1, "eta_oper": 1, "tipo_esta": 2, "ub_est": "KR 9A", "num_acc": 2, "acc_esp": 1, "acc_depr": 0, "acc_puent": 1, "cod_nodo": 9001, "cap_biart": 144, "num_vag": 2, "cap_art": 160, "globalid": "{0A966495-888E-4F89-93F7-8297F2FBFC63}", "created_user": null, "created_date": null, "last_edited_user": null, "last_edited_date": null}, "geometry": {"type": "Point", "coordinates": [-74.12182778886832, 4.557064564002366]}}, {"type": "Feature", "properties": {"observ": "Valores de capacidad de buses en proceso de actualización", "longitud": -74.09392542, "latitud": 4.58628471, "objectid": 721, "num_est": "09106", "nom_est": "Nariño", "id_trazado": "TZ012", "long_est": 88.49, "ancho_est": 4.0, "area_est": 353.96, "esta_oper": 1, "eta_oper": 1, "tipo_esta": 4, "ub_est": "CL 8 Sur - CL 11 Sur", "num_acc": 1, "acc_esp": 1, "acc_depr": 0, "acc_puent": 0, "cod_nodo": 9106, "cap_biart": 48, "num_vag": 2, "cap_art": 96, "globalid": "{1C6915D1-74E0-4A6F-8625-FA78A43FF4EA}", "created_user": null, "created_date": null, "last_edited_user": null, "last_edited_date": null}, "geometry": {"type": "Point", "coordinates": [-74.09392541573067, 4.58628470770093]}}, {"type": "Feature", "properties": {"observ": "Valores de capacidad de buses en proceso de actualización", "longitud": -74.07472334, "latitud": 4.72745584, "objectid": 722, "num_est": "03004", "nom_est": "Gratamira", "id_trazado": "TZ003", "long_est": 89.35, "ancho_est": 4.0, "area_est": 357.4, "esta_oper": 1, "eta_oper": 1, "tipo_esta": 4, "ub_est": "AV Suba - CL 135", "num_acc": 1, "acc_esp": 0, "acc_depr": 0, "acc_puent": 1, "cod_nodo": 3004, "cap_biart": 48, "num_vag": 2, "cap_art": 96, "globalid": "{E25E34DA-F746-4024-AEFC-D0F3A2FA611C}", "created_user": null, "created_date": null, "last_edited_user": null, "last_edited_date": null}, "geometry": {"type": "Point", "coordinates": [-74.07472333854827, 4.727455840781251]}}, {"type": "Feature", "properties": {"observ": "Valores de capacidad de buses en proceso de actualización", "longitud": -74.11867713, "latitud": 4.62850646, "objectid": 723, "num_est": "05105", "nom_est": "Pradera - Plaza Central", "id_trazado": "TZ009", "long_est": 89.61, "ancho_est": 3.0, "area_est": 268.83, "esta_oper": 1, "eta_oper": 1, "tipo_esta": 4, "ub_est": "AV Americas - KR 64", "num_acc": 1, "acc_esp": 0, "acc_depr": 0, "acc_puent": 1, "cod_nodo": 5105, "cap_biart": 72, "num_vag": 2, "cap_art": 128, "globalid": "{F74970D5-60F3-46E3-928A-84A2646C116D}", "created_user": null, "created_date": null, "last_edited_user": null, "last_edited_date": null}, "geometry": {"type": "Point", "coordinates": [-74.11867713273622, 4.628506463940081]}}, {"type": "Feature", "properties": {"observ": "Valores de capacidad de buses en proceso de actualización", "longitud": -74.07432675, "latitud": 4.60606534, "objectid": 724, "num_est": "10007", "nom_est": "Las Nieves", "id_trazado": "TZ018", "long_est": 130.1, "ancho_est": 4.0, "area_est": 520.4, "esta_oper": 1, "eta_oper": 1, "tipo_esta": 4, "ub_est": "KR 10 - CL 18", "num_acc": 2, "acc_esp": 2, "acc_depr": 0, "acc_puent": 0, "cod_nodo": 10007, "cap_biart": 120, "num_vag": 2, "cap_art": 144, "globalid": "{14BAD685-EB6E-41DA-A373-E17A52FC81FC}", "created_user": null, "created_date": null, "last_edited_user": null, "last_edited_date": null}, "geometry": {"type": "Point", "coordinates": [-74.07432674893896, 4.606065335057134]}}]}